{
  "type": "FeatureCollection",
  "features": [
    {
      "type": "Feature",
      "geometry": {
        "type": "Point",
        "coordinates": [
          109.23279514,
          -0.42422317
        ]
      },
      "properties": {
        "ring_id": "RING-019",
        "radius_m": 5.0,
        "member_count": 13,
        "suspect_count": 9,
        "abnormal_count": 4,
        "mean_ndre": 0.3631,
        "mean_height_m": 4.74,
        "severity_score": 18.169,
        "priority": "High",
        "zone": "Merah"
      }
    },
    {
      "type": "Feature",
      "geometry": {
        "type": "Point",
        "coordinates": [
          109.23154391,
          -0.42612791
        ]
      },
      "properties": {
        "ring_id": "RING-006",
        "radius_m": 5.0,
        "member_count": 10,
        "suspect_count": 7,
        "abnormal_count": 3,
        "mean_ndre": 0.3584,
        "mean_height_m": 6.25,
        "severity_score": 14.166,
        "priority": "High",
        "zone": "Merah"
      }
    },
    {
      "type": "Feature",
      "geometry": {
        "type": "Point",
        "coordinates": [
          109.23343515,
          -0.42536381
        ]
      },
      "properties": {
        "ring_id": "RING-036",
        "radius_m": 5.0,
        "member_count": 8,
        "suspect_count": 7,
        "abnormal_count": 1,
        "mean_ndre": 0.3331,
        "mean_height_m": 5.8,
        "severity_score": 12.719,
        "priority": "High",
        "zone": "Merah"
      }
    },
    {
      "type": "Feature",
      "geometry": {
        "type": "Point",
        "coordinates": [
          109.23318338,
          -0.42775076
        ]
      },
      "properties": {
        "ring_id": "RING-018",
        "radius_m": 5.0,
        "member_count": 8,
        "suspect_count": 6,
        "abnormal_count": 2,
        "mean_ndre": 0.3495,
        "mean_height_m": 5.67,
        "severity_score": 11.805,
        "priority": "Medium",
        "zone": "Oranye"
      }
    },
    {
      "type": "Feature",
      "geometry": {
        "type": "Point",
        "coordinates": [
          109.23202518,
          -0.42593511
        ]
      },
      "properties": {
        "ring_id": "RING-029",
        "radius_m": 5.0,
        "member_count": 7,
        "suspect_count": 7,
        "abnormal_count": 0,
        "mean_ndre": 0.3506,
        "mean_height_m": 6.49,
        "severity_score": 11.694,
        "priority": "Medium",
        "zone": "Oranye"
      }
    },
    {
      "type": "Feature",
      "geometry": {
        "type": "Point",
        "coordinates": [
          109.23314088,
          -0.42882111
        ]
      },
      "properties": {
        "ring_id": "RING-044",
        "radius_m": 5.0,
        "member_count": 7,
        "suspect_count": 7,
        "abnormal_count": 0,
        "mean_ndre": 0.3513,
        "mean_height_m": 6.2,
        "severity_score": 11.687,
        "priority": "Medium",
        "zone": "Oranye"
      }
    },
    {
      "type": "Feature",
      "geometry": {
        "type": "Point",
        "coordinates": [
          109.23140555,
          -0.42685225
        ]
      },
      "properties": {
        "ring_id": "RING-004",
        "radius_m": 5.0,
        "member_count": 7,
        "suspect_count": 6,
        "abnormal_count": 1,
        "mean_ndre": 0.3381,
        "mean_height_m": 7.43,
        "severity_score": 11.069,
        "priority": "Medium",
        "zone": "Oranye"
      }
    },
    {
      "type": "Feature",
      "geometry": {
        "type": "Point",
        "coordinates": [
          109.2313677,
          -0.42430968
        ]
      },
      "properties": {
        "ring_id": "RING-020",
        "radius_m": 5.0,
        "member_count": 7,
        "suspect_count": 6,
        "abnormal_count": 1,
        "mean_ndre": 0.3399,
        "mean_height_m": 7.49,
        "severity_score": 11.051,
        "priority": "Medium",
        "zone": "Oranye"
      }
    },
    {
      "type": "Feature",
      "geometry": {
        "type": "Point",
        "coordinates": [
          109.23153327,
          -0.42473118
        ]
      },
      "properties": {
        "ring_id": "RING-013",
        "radius_m": 5.0,
        "member_count": 7,
        "suspect_count": 6,
        "abnormal_count": 1,
        "mean_ndre": 0.3467,
        "mean_height_m": 7.84,
        "severity_score": 10.983,
        "priority": "Medium",
        "zone": "Oranye"
      }
    },
    {
      "type": "Feature",
      "geometry": {
        "type": "Point",
        "coordinates": [
          109.2321239,
          -0.4240974
        ]
      },
      "properties": {
        "ring_id": "RING-077",
        "radius_m": 5.0,
        "member_count": 7,
        "suspect_count": 5,
        "abnormal_count": 2,
        "mean_ndre": 0.348,
        "mean_height_m": 4.03,
        "severity_score": 10.22,
        "priority": "Medium",
        "zone": "Oranye"
      }
    },
    {
      "type": "Feature",
      "geometry": {
        "type": "Point",
        "coordinates": [
          109.23337412,
          -0.42621769
        ]
      },
      "properties": {
        "ring_id": "RING-050",
        "radius_m": 5.0,
        "member_count": 7,
        "suspect_count": 5,
        "abnormal_count": 2,
        "mean_ndre": 0.3559,
        "mean_height_m": 4.79,
        "severity_score": 10.141,
        "priority": "Medium",
        "zone": "Oranye"
      }
    },
    {
      "type": "Feature",
      "geometry": {
        "type": "Point",
        "coordinates": [
          109.2330013,
          -0.42442806
        ]
      },
      "properties": {
        "ring_id": "RING-048",
        "radius_m": 5.0,
        "member_count": 7,
        "suspect_count": 5,
        "abnormal_count": 2,
        "mean_ndre": 0.3599,
        "mean_height_m": 4.78,
        "severity_score": 10.101,
        "priority": "Medium",
        "zone": "Oranye"
      }
    },
    {
      "type": "Feature",
      "geometry": {
        "type": "Point",
        "coordinates": [
          109.232251,
          -0.42552183
        ]
      },
      "properties": {
        "ring_id": "RING-054",
        "radius_m": 5.0,
        "member_count": 7,
        "suspect_count": 5,
        "abnormal_count": 2,
        "mean_ndre": 0.3806,
        "mean_height_m": 5.38,
        "severity_score": 9.894,
        "priority": "Medium",
        "zone": "Oranye"
      }
    },
    {
      "type": "Feature",
      "geometry": {
        "type": "Point",
        "coordinates": [
          109.23137816,
          -0.42577444
        ]
      },
      "properties": {
        "ring_id": "RING-007",
        "radius_m": 5.0,
        "member_count": 6,
        "suspect_count": 5,
        "abnormal_count": 1,
        "mean_ndre": 0.357,
        "mean_height_m": 7.86,
        "severity_score": 9.28,
        "priority": "Medium",
        "zone": "Oranye"
      }
    },
    {
      "type": "Feature",
      "geometry": {
        "type": "Point",
        "coordinates": [
          109.2313667,
          -0.42248459
        ]
      },
      "properties": {
        "ring_id": "RING-035",
        "radius_m": 5.0,
        "member_count": 5,
        "suspect_count": 5,
        "abnormal_count": 0,
        "mean_ndre": 0.2978,
        "mean_height_m": 7.3,
        "severity_score": 9.022,
        "priority": "Medium",
        "zone": "Oranye"
      }
    },
    {
      "type": "Feature",
      "geometry": {
        "type": "Point",
        "coordinates": [
          109.23183877,
          -0.42194076
        ]
      },
      "properties": {
        "ring_id": "RING-025",
        "radius_m": 5.0,
        "member_count": 5,
        "suspect_count": 5,
        "abnormal_count": 0,
        "mean_ndre": 0.3252,
        "mean_height_m": 7.82,
        "severity_score": 8.748,
        "priority": "Medium",
        "zone": "Oranye"
      }
    },
    {
      "type": "Feature",
      "geometry": {
        "type": "Point",
        "coordinates": [
          109.23278456,
          -0.42984481
        ]
      },
      "properties": {
        "ring_id": "RING-042",
        "radius_m": 5.0,
        "member_count": 5,
        "suspect_count": 5,
        "abnormal_count": 0,
        "mean_ndre": 0.3286,
        "mean_height_m": 6.32,
        "severity_score": 8.714,
        "priority": "Medium",
        "zone": "Oranye"
      }
    },
    {
      "type": "Feature",
      "geometry": {
        "type": "Point",
        "coordinates": [
          109.23294585,
          -0.42530247
        ]
      },
      "properties": {
        "ring_id": "RING-075",
        "radius_m": 5.0,
        "member_count": 5,
        "suspect_count": 5,
        "abnormal_count": 0,
        "mean_ndre": 0.3394,
        "mean_height_m": 4.44,
        "severity_score": 8.606,
        "priority": "Medium",
        "zone": "Oranye"
      }
    },
    {
      "type": "Feature",
      "geometry": {
        "type": "Point",
        "coordinates": [
          109.23178908,
          -0.42440433
        ]
      },
      "properties": {
        "ring_id": "RING-061",
        "radius_m": 5.0,
        "member_count": 5,
        "suspect_count": 5,
        "abnormal_count": 0,
        "mean_ndre": 0.347,
        "mean_height_m": 5.47,
        "severity_score": 8.53,
        "priority": "Medium",
        "zone": "Oranye"
      }
    },
    {
      "type": "Feature",
      "geometry": {
        "type": "Point",
        "coordinates": [
          109.23284901,
          -0.42375293
        ]
      },
      "properties": {
        "ring_id": "RING-057",
        "radius_m": 5.0,
        "member_count": 5,
        "suspect_count": 5,
        "abnormal_count": 0,
        "mean_ndre": 0.3518,
        "mean_height_m": 5.66,
        "severity_score": 8.482,
        "priority": "Medium",
        "zone": "Oranye"
      }
    },
    {
      "type": "Feature",
      "geometry": {
        "type": "Point",
        "coordinates": [
          109.23135697,
          -0.42772779
        ]
      },
      "properties": {
        "ring_id": "RING-028",
        "radius_m": 5.0,
        "member_count": 5,
        "suspect_count": 5,
        "abnormal_count": 0,
        "mean_ndre": 0.3524,
        "mean_height_m": 7.35,
        "severity_score": 8.476,
        "priority": "Medium",
        "zone": "Oranye"
      }
    },
    {
      "type": "Feature",
      "geometry": {
        "type": "Point",
        "coordinates": [
          109.23138663,
          -0.42172914
        ]
      },
      "properties": {
        "ring_id": "RING-043",
        "radius_m": 5.0,
        "member_count": 5,
        "suspect_count": 4,
        "abnormal_count": 1,
        "mean_ndre": 0.3348,
        "mean_height_m": 5.62,
        "severity_score": 7.902,
        "priority": "Medium",
        "zone": "Oranye"
      }
    },
    {
      "type": "Feature",
      "geometry": {
        "type": "Point",
        "coordinates": [
          109.23187207,
          -0.42326837
        ]
      },
      "properties": {
        "ring_id": "RING-067",
        "radius_m": 5.0,
        "member_count": 5,
        "suspect_count": 4,
        "abnormal_count": 1,
        "mean_ndre": 0.3354,
        "mean_height_m": 4.56,
        "severity_score": 7.896,
        "priority": "Medium",
        "zone": "Oranye"
      }
    },
    {
      "type": "Feature",
      "geometry": {
        "type": "Point",
        "coordinates": [
          109.23259288,
          -0.42230952
        ]
      },
      "properties": {
        "ring_id": "RING-040",
        "radius_m": 5.0,
        "member_count": 6,
        "suspect_count": 3,
        "abnormal_count": 3,
        "mean_ndre": 0.352,
        "mean_height_m": 5.74,
        "severity_score": 7.83,
        "priority": "Medium",
        "zone": "Oranye"
      }
    },
    {
      "type": "Feature",
      "geometry": {
        "type": "Point",
        "coordinates": [
          109.23254751,
          -0.42392486
        ]
      },
      "properties": {
        "ring_id": "RING-046",
        "radius_m": 5.0,
        "member_count": 5,
        "suspect_count": 4,
        "abnormal_count": 1,
        "mean_ndre": 0.3474,
        "mean_height_m": 5.48,
        "severity_score": 7.776,
        "priority": "Medium",
        "zone": "Oranye"
      }
    },
    {
      "type": "Feature",
      "geometry": {
        "type": "Point",
        "coordinates": [
          109.2321205,
          -0.43085014
        ]
      },
      "properties": {
        "ring_id": "RING-010",
        "radius_m": 5.0,
        "member_count": 5,
        "suspect_count": 4,
        "abnormal_count": 1,
        "mean_ndre": 0.3524,
        "mean_height_m": 6.91,
        "severity_score": 7.726,
        "priority": "Medium",
        "zone": "Oranye"
      }
    },
    {
      "type": "Feature",
      "geometry": {
        "type": "Point",
        "coordinates": [
          109.23315559,
          -0.42681555
        ]
      },
      "properties": {
        "ring_id": "RING-065",
        "radius_m": 5.0,
        "member_count": 6,
        "suspect_count": 3,
        "abnormal_count": 3,
        "mean_ndre": 0.3645,
        "mean_height_m": 4.33,
        "severity_score": 7.705,
        "priority": "Medium",
        "zone": "Oranye"
      }
    },
    {
      "type": "Feature",
      "geometry": {
        "type": "Point",
        "coordinates": [
          109.23297809,
          -0.42294642
        ]
      },
      "properties": {
        "ring_id": "RING-055",
        "radius_m": 5.0,
        "member_count": 5,
        "suspect_count": 3,
        "abnormal_count": 2,
        "mean_ndre": 0.332,
        "mean_height_m": 4.84,
        "severity_score": 7.18,
        "priority": "Medium",
        "zone": "Oranye"
      }
    },
    {
      "type": "Feature",
      "geometry": {
        "type": "Point",
        "coordinates": [
          109.2330677,
          -0.42980558
        ]
      },
      "properties": {
        "ring_id": "RING-012",
        "radius_m": 5.0,
        "member_count": 4,
        "suspect_count": 4,
        "abnormal_count": 0,
        "mean_ndre": 0.324,
        "mean_height_m": 9.48,
        "severity_score": 7.16,
        "priority": "Medium",
        "zone": "Oranye"
      }
    },
    {
      "type": "Feature",
      "geometry": {
        "type": "Point",
        "coordinates": [
          109.23291685,
          -0.42758878
        ]
      },
      "properties": {
        "ring_id": "RING-070",
        "radius_m": 5.0,
        "member_count": 4,
        "suspect_count": 4,
        "abnormal_count": 0,
        "mean_ndre": 0.336,
        "mean_height_m": 4.87,
        "severity_score": 7.04,
        "priority": "Medium",
        "zone": "Oranye"
      }
    },
    {
      "type": "Feature",
      "geometry": {
        "type": "Point",
        "coordinates": [
          109.23191796,
          -0.42369041
        ]
      },
      "properties": {
        "ring_id": "RING-023",
        "radius_m": 5.0,
        "member_count": 5,
        "suspect_count": 3,
        "abnormal_count": 2,
        "mean_ndre": 0.3492,
        "mean_height_m": 5.18,
        "severity_score": 7.008,
        "priority": "Medium",
        "zone": "Oranye"
      }
    },
    {
      "type": "Feature",
      "geometry": {
        "type": "Point",
        "coordinates": [
          109.23179957,
          -0.43076203
        ]
      },
      "properties": {
        "ring_id": "RING-027",
        "radius_m": 5.0,
        "member_count": 4,
        "suspect_count": 4,
        "abnormal_count": 0,
        "mean_ndre": 0.3415,
        "mean_height_m": 7.08,
        "severity_score": 6.985,
        "priority": "Low",
        "zone": "Kuning"
      }
    },
    {
      "type": "Feature",
      "geometry": {
        "type": "Point",
        "coordinates": [
          109.23178252,
          -0.42973215
        ]
      },
      "properties": {
        "ring_id": "RING-017",
        "radius_m": 5.0,
        "member_count": 4,
        "suspect_count": 4,
        "abnormal_count": 0,
        "mean_ndre": 0.3432,
        "mean_height_m": 8.79,
        "severity_score": 6.968,
        "priority": "Low",
        "zone": "Kuning"
      }
    },
    {
      "type": "Feature",
      "geometry": {
        "type": "Point",
        "coordinates": [
          109.2316286,
          -0.42504091
        ]
      },
      "properties": {
        "ring_id": "RING-045",
        "radius_m": 5.0,
        "member_count": 5,
        "suspect_count": 3,
        "abnormal_count": 2,
        "mean_ndre": 0.364,
        "mean_height_m": 4.81,
        "severity_score": 6.86,
        "priority": "Low",
        "zone": "Kuning"
      }
    },
    {
      "type": "Feature",
      "geometry": {
        "type": "Point",
        "coordinates": [
          109.23192444,
          -0.42485406
        ]
      },
      "properties": {
        "ring_id": "RING-049",
        "radius_m": 5.0,
        "member_count": 4,
        "suspect_count": 4,
        "abnormal_count": 0,
        "mean_ndre": 0.355,
        "mean_height_m": 6.23,
        "severity_score": 6.85,
        "priority": "Low",
        "zone": "Kuning"
      }
    },
    {
      "type": "Feature",
      "geometry": {
        "type": "Point",
        "coordinates": [
          109.23221283,
          -0.42762275
        ]
      },
      "properties": {
        "ring_id": "RING-009",
        "radius_m": 5.0,
        "member_count": 4,
        "suspect_count": 4,
        "abnormal_count": 0,
        "mean_ndre": 0.3575,
        "mean_height_m": 7.95,
        "severity_score": 6.825,
        "priority": "Low",
        "zone": "Kuning"
      }
    },
    {
      "type": "Feature",
      "geometry": {
        "type": "Point",
        "coordinates": [
          109.23240478,
          -0.4270631
        ]
      },
      "properties": {
        "ring_id": "RING-030",
        "radius_m": 5.0,
        "member_count": 5,
        "suspect_count": 3,
        "abnormal_count": 2,
        "mean_ndre": 0.3706,
        "mean_height_m": 5.17,
        "severity_score": 6.794,
        "priority": "Low",
        "zone": "Kuning"
      }
    },
    {
      "type": "Feature",
      "geometry": {
        "type": "Point",
        "coordinates": [
          109.23247558,
          -0.42263052
        ]
      },
      "properties": {
        "ring_id": "RING-047",
        "radius_m": 5.0,
        "member_count": 4,
        "suspect_count": 3,
        "abnormal_count": 1,
        "mean_ndre": 0.3273,
        "mean_height_m": 5.79,
        "severity_score": 6.378,
        "priority": "Low",
        "zone": "Kuning"
      }
    },
    {
      "type": "Feature",
      "geometry": {
        "type": "Point",
        "coordinates": [
          109.23325471,
          -0.42264088
        ]
      },
      "properties": {
        "ring_id": "RING-082",
        "radius_m": 5.0,
        "member_count": 4,
        "suspect_count": 3,
        "abnormal_count": 1,
        "mean_ndre": 0.338,
        "mean_height_m": 4.04,
        "severity_score": 6.27,
        "priority": "Low",
        "zone": "Kuning"
      }
    },
    {
      "type": "Feature",
      "geometry": {
        "type": "Point",
        "coordinates": [
          109.23214016,
          -0.42505586
        ]
      },
      "properties": {
        "ring_id": "RING-081",
        "radius_m": 5.0,
        "member_count": 5,
        "suspect_count": 2,
        "abnormal_count": 3,
        "mean_ndre": 0.355,
        "mean_height_m": 3.97,
        "severity_score": 6.2,
        "priority": "Low",
        "zone": "Kuning"
      }
    },
    {
      "type": "Feature",
      "geometry": {
        "type": "Point",
        "coordinates": [
          109.2321117,
          -0.42991399
        ]
      },
      "properties": {
        "ring_id": "RING-014",
        "radius_m": 5.0,
        "member_count": 4,
        "suspect_count": 3,
        "abnormal_count": 1,
        "mean_ndre": 0.3538,
        "mean_height_m": 7.19,
        "severity_score": 6.113,
        "priority": "Low",
        "zone": "Kuning"
      }
    },
    {
      "type": "Feature",
      "geometry": {
        "type": "Point",
        "coordinates": [
          109.23127503,
          -0.42136197
        ]
      },
      "properties": {
        "ring_id": "RING-034",
        "radius_m": 5.0,
        "member_count": 3,
        "suspect_count": 3,
        "abnormal_count": 0,
        "mean_ndre": 0.2717,
        "mean_height_m": 8.36,
        "severity_score": 6.083,
        "priority": "Low",
        "zone": "Kuning"
      }
    },
    {
      "type": "Feature",
      "geometry": {
        "type": "Point",
        "coordinates": [
          109.23295296,
          -0.42629462
        ]
      },
      "properties": {
        "ring_id": "RING-053",
        "radius_m": 5.0,
        "member_count": 4,
        "suspect_count": 3,
        "abnormal_count": 1,
        "mean_ndre": 0.3837,
        "mean_height_m": 4.71,
        "severity_score": 5.813,
        "priority": "Low",
        "zone": "Kuning"
      }
    },
    {
      "type": "Feature",
      "geometry": {
        "type": "Point",
        "coordinates": [
          109.23285436,
          -0.42787026
        ]
      },
      "properties": {
        "ring_id": "RING-038",
        "radius_m": 5.0,
        "member_count": 3,
        "suspect_count": 3,
        "abnormal_count": 0,
        "mean_ndre": 0.3003,
        "mean_height_m": 6.2,
        "severity_score": 5.797,
        "priority": "Low",
        "zone": "Kuning"
      }
    },
    {
      "type": "Feature",
      "geometry": {
        "type": "Point",
        "coordinates": [
          109.23323422,
          -0.42734661
        ]
      },
      "properties": {
        "ring_id": "RING-058",
        "radius_m": 5.0,
        "member_count": 4,
        "suspect_count": 2,
        "abnormal_count": 2,
        "mean_ndre": 0.3263,
        "mean_height_m": 4.95,
        "severity_score": 5.638,
        "priority": "Low",
        "zone": "Kuning"
      }
    },
    {
      "type": "Feature",
      "geometry": {
        "type": "Point",
        "coordinates": [
          109.23142839,
          -0.42900226
        ]
      },
      "properties": {
        "ring_id": "RING-002",
        "radius_m": 5.0,
        "member_count": 3,
        "suspect_count": 3,
        "abnormal_count": 0,
        "mean_ndre": 0.3217,
        "mean_height_m": 10.89,
        "severity_score": 5.583,
        "priority": "Low",
        "zone": "Kuning"
      }
    },
    {
      "type": "Feature",
      "geometry": {
        "type": "Point",
        "coordinates": [
          109.23225535,
          -0.42463304
        ]
      },
      "properties": {
        "ring_id": "RING-052",
        "radius_m": 5.0,
        "member_count": 3,
        "suspect_count": 3,
        "abnormal_count": 0,
        "mean_ndre": 0.331,
        "mean_height_m": 6.3,
        "severity_score": 5.49,
        "priority": "Low",
        "zone": "Kuning"
      }
    },
    {
      "type": "Feature",
      "geometry": {
        "type": "Point",
        "coordinates": [
          109.23332957,
          -0.42246388
        ]
      },
      "properties": {
        "ring_id": "RING-068",
        "radius_m": 5.0,
        "member_count": 3,
        "suspect_count": 3,
        "abnormal_count": 0,
        "mean_ndre": 0.3353,
        "mean_height_m": 5.05,
        "severity_score": 5.447,
        "priority": "Low",
        "zone": "Kuning"
      }
    },
    {
      "type": "Feature",
      "geometry": {
        "type": "Point",
        "coordinates": [
          109.23276872,
          -0.42275346
        ]
      },
      "properties": {
        "ring_id": "RING-063",
        "radius_m": 5.0,
        "member_count": 4,
        "suspect_count": 2,
        "abnormal_count": 2,
        "mean_ndre": 0.3455,
        "mean_height_m": 4.57,
        "severity_score": 5.445,
        "priority": "Low",
        "zone": "Kuning"
      }
    },
    {
      "type": "Feature",
      "geometry": {
        "type": "Point",
        "coordinates": [
          109.23180827,
          -0.42810167
        ]
      },
      "properties": {
        "ring_id": "RING-003",
        "radius_m": 5.0,
        "member_count": 3,
        "suspect_count": 3,
        "abnormal_count": 0,
        "mean_ndre": 0.336,
        "mean_height_m": 10.63,
        "severity_score": 5.44,
        "priority": "Low",
        "zone": "Kuning"
      }
    },
    {
      "type": "Feature",
      "geometry": {
        "type": "Point",
        "coordinates": [
          109.23333898,
          -0.4265293
        ]
      },
      "properties": {
        "ring_id": "RING-076",
        "radius_m": 5.0,
        "member_count": 3,
        "suspect_count": 3,
        "abnormal_count": 0,
        "mean_ndre": 0.3403,
        "mean_height_m": 4.71,
        "severity_score": 5.397,
        "priority": "Low",
        "zone": "Kuning"
      }
    },
    {
      "type": "Feature",
      "geometry": {
        "type": "Point",
        "coordinates": [
          109.23139584,
          -0.42208016
        ]
      },
      "properties": {
        "ring_id": "RING-021",
        "radius_m": 5.0,
        "member_count": 3,
        "suspect_count": 3,
        "abnormal_count": 0,
        "mean_ndre": 0.3407,
        "mean_height_m": 9.15,
        "severity_score": 5.393,
        "priority": "Low",
        "zone": "Kuning"
      }
    },
    {
      "type": "Feature",
      "geometry": {
        "type": "Point",
        "coordinates": [
          109.23261832,
          -0.42826945
        ]
      },
      "properties": {
        "ring_id": "RING-041",
        "radius_m": 5.0,
        "member_count": 3,
        "suspect_count": 3,
        "abnormal_count": 0,
        "mean_ndre": 0.341,
        "mean_height_m": 6.81,
        "severity_score": 5.39,
        "priority": "Low",
        "zone": "Kuning"
      }
    },
    {
      "type": "Feature",
      "geometry": {
        "type": "Point",
        "coordinates": [
          109.23161029,
          -0.42228443
        ]
      },
      "properties": {
        "ring_id": "RING-060",
        "radius_m": 5.0,
        "member_count": 4,
        "suspect_count": 2,
        "abnormal_count": 2,
        "mean_ndre": 0.3555,
        "mean_height_m": 4.73,
        "severity_score": 5.345,
        "priority": "Low",
        "zone": "Kuning"
      }
    },
    {
      "type": "Feature",
      "geometry": {
        "type": "Point",
        "coordinates": [
          109.23227591,
          -0.43096569
        ]
      },
      "properties": {
        "ring_id": "RING-011",
        "radius_m": 5.0,
        "member_count": 3,
        "suspect_count": 3,
        "abnormal_count": 0,
        "mean_ndre": 0.346,
        "mean_height_m": 9.57,
        "severity_score": 5.34,
        "priority": "Low",
        "zone": "Kuning"
      }
    },
    {
      "type": "Feature",
      "geometry": {
        "type": "Point",
        "coordinates": [
          109.23182765,
          -0.42254371
        ]
      },
      "properties": {
        "ring_id": "RING-016",
        "radius_m": 5.0,
        "member_count": 3,
        "suspect_count": 3,
        "abnormal_count": 0,
        "mean_ndre": 0.347,
        "mean_height_m": 7.38,
        "severity_score": 5.33,
        "priority": "Low",
        "zone": "Kuning"
      }
    },
    {
      "type": "Feature",
      "geometry": {
        "type": "Point",
        "coordinates": [
          109.23350889,
          -0.42327251
        ]
      },
      "properties": {
        "ring_id": "RING-022",
        "radius_m": 5.0,
        "member_count": 3,
        "suspect_count": 3,
        "abnormal_count": 0,
        "mean_ndre": 0.351,
        "mean_height_m": 6.7,
        "severity_score": 5.29,
        "priority": "Low",
        "zone": "Kuning"
      }
    },
    {
      "type": "Feature",
      "geometry": {
        "type": "Point",
        "coordinates": [
          109.23294716,
          -0.42200667
        ]
      },
      "properties": {
        "ring_id": "RING-039",
        "radius_m": 5.0,
        "member_count": 3,
        "suspect_count": 3,
        "abnormal_count": 0,
        "mean_ndre": 0.3533,
        "mean_height_m": 7.46,
        "severity_score": 5.267,
        "priority": "Low",
        "zone": "Kuning"
      }
    },
    {
      "type": "Feature",
      "geometry": {
        "type": "Point",
        "coordinates": [
          109.23281041,
          -0.42824177
        ]
      },
      "properties": {
        "ring_id": "RING-037",
        "radius_m": 5.0,
        "member_count": 3,
        "suspect_count": 3,
        "abnormal_count": 0,
        "mean_ndre": 0.3553,
        "mean_height_m": 6.59,
        "severity_score": 5.247,
        "priority": "Low",
        "zone": "Kuning"
      }
    },
    {
      "type": "Feature",
      "geometry": {
        "type": "Point",
        "coordinates": [
          109.23338571,
          -0.42775418
        ]
      },
      "properties": {
        "ring_id": "RING-069",
        "radius_m": 5.0,
        "member_count": 3,
        "suspect_count": 3,
        "abnormal_count": 0,
        "mean_ndre": 0.3577,
        "mean_height_m": 4.73,
        "severity_score": 5.223,
        "priority": "Low",
        "zone": "Kuning"
      }
    },
    {
      "type": "Feature",
      "geometry": {
        "type": "Point",
        "coordinates": [
          109.2317839,
          -0.4285933
        ]
      },
      "properties": {
        "ring_id": "RING-059",
        "radius_m": 5.0,
        "member_count": 3,
        "suspect_count": 3,
        "abnormal_count": 0,
        "mean_ndre": 0.358,
        "mean_height_m": 5.38,
        "severity_score": 5.22,
        "priority": "Low",
        "zone": "Kuning"
      }
    },
    {
      "type": "Feature",
      "geometry": {
        "type": "Point",
        "coordinates": [
          109.23209818,
          -0.4284624
        ]
      },
      "properties": {
        "ring_id": "RING-031",
        "radius_m": 5.0,
        "member_count": 3,
        "suspect_count": 3,
        "abnormal_count": 0,
        "mean_ndre": 0.3583,
        "mean_height_m": 6.35,
        "severity_score": 5.217,
        "priority": "Low",
        "zone": "Kuning"
      }
    },
    {
      "type": "Feature",
      "geometry": {
        "type": "Point",
        "coordinates": [
          109.23196949,
          -0.42686568
        ]
      },
      "properties": {
        "ring_id": "RING-026",
        "radius_m": 5.0,
        "member_count": 3,
        "suspect_count": 3,
        "abnormal_count": 0,
        "mean_ndre": 0.3597,
        "mean_height_m": 8.45,
        "severity_score": 5.203,
        "priority": "Low",
        "zone": "Kuning"
      }
    },
    {
      "type": "Feature",
      "geometry": {
        "type": "Point",
        "coordinates": [
          109.23286189,
          -0.42960727
        ]
      },
      "properties": {
        "ring_id": "RING-033",
        "radius_m": 5.0,
        "member_count": 3,
        "suspect_count": 3,
        "abnormal_count": 0,
        "mean_ndre": 0.36,
        "mean_height_m": 5.85,
        "severity_score": 5.2,
        "priority": "Low",
        "zone": "Kuning"
      }
    },
    {
      "type": "Feature",
      "geometry": {
        "type": "Point",
        "coordinates": [
          109.23149358,
          -0.42739986
        ]
      },
      "properties": {
        "ring_id": "RING-015",
        "radius_m": 5.0,
        "member_count": 3,
        "suspect_count": 3,
        "abnormal_count": 0,
        "mean_ndre": 0.3603,
        "mean_height_m": 7.21,
        "severity_score": 5.197,
        "priority": "Low",
        "zone": "Kuning"
      }
    },
    {
      "type": "Feature",
      "geometry": {
        "type": "Point",
        "coordinates": [
          109.23233419,
          -0.42358483
        ]
      },
      "properties": {
        "ring_id": "RING-056",
        "radius_m": 5.0,
        "member_count": 3,
        "suspect_count": 3,
        "abnormal_count": 0,
        "mean_ndre": 0.3623,
        "mean_height_m": 5.53,
        "severity_score": 5.177,
        "priority": "Low",
        "zone": "Kuning"
      }
    },
    {
      "type": "Feature",
      "geometry": {
        "type": "Point",
        "coordinates": [
          109.23247437,
          -0.42648068
        ]
      },
      "properties": {
        "ring_id": "RING-032",
        "radius_m": 5.0,
        "member_count": 4,
        "suspect_count": 2,
        "abnormal_count": 2,
        "mean_ndre": 0.3897,
        "mean_height_m": 5.66,
        "severity_score": 5.003,
        "priority": "Low",
        "zone": "Kuning"
      }
    },
    {
      "type": "Feature",
      "geometry": {
        "type": "Point",
        "coordinates": [
          109.23246278,
          -0.42426835
        ]
      },
      "properties": {
        "ring_id": "RING-072",
        "radius_m": 5.0,
        "member_count": 3,
        "suspect_count": 2,
        "abnormal_count": 1,
        "mean_ndre": 0.3073,
        "mean_height_m": 4.24,
        "severity_score": 4.977,
        "priority": "Low",
        "zone": "Kuning"
      }
    },
    {
      "type": "Feature",
      "geometry": {
        "type": "Point",
        "coordinates": [
          109.23257989,
          -0.42545708
        ]
      },
      "properties": {
        "ring_id": "RING-024",
        "radius_m": 5.0,
        "member_count": 3,
        "suspect_count": 2,
        "abnormal_count": 1,
        "mean_ndre": 0.3177,
        "mean_height_m": 6.08,
        "severity_score": 4.873,
        "priority": "Low",
        "zone": "Kuning"
      }
    },
    {
      "type": "Feature",
      "geometry": {
        "type": "Point",
        "coordinates": [
          109.23321435,
          -0.42945377
        ]
      },
      "properties": {
        "ring_id": "RING-064",
        "radius_m": 5.0,
        "member_count": 3,
        "suspect_count": 2,
        "abnormal_count": 1,
        "mean_ndre": 0.321,
        "mean_height_m": 5.26,
        "severity_score": 4.84,
        "priority": "Low",
        "zone": "Kuning"
      }
    },
    {
      "type": "Feature",
      "geometry": {
        "type": "Point",
        "coordinates": [
          109.23223356,
          -0.42303258
        ]
      },
      "properties": {
        "ring_id": "RING-074",
        "radius_m": 5.0,
        "member_count": 3,
        "suspect_count": 2,
        "abnormal_count": 1,
        "mean_ndre": 0.3323,
        "mean_height_m": 4.41,
        "severity_score": 4.727,
        "priority": "Low",
        "zone": "Kuning"
      }
    },
    {
      "type": "Feature",
      "geometry": {
        "type": "Point",
        "coordinates": [
          109.23160362,
          -0.42281962
        ]
      },
      "properties": {
        "ring_id": "RING-079",
        "radius_m": 5.0,
        "member_count": 3,
        "suspect_count": 2,
        "abnormal_count": 1,
        "mean_ndre": 0.3373,
        "mean_height_m": 4.12,
        "severity_score": 4.677,
        "priority": "Low",
        "zone": "Kuning"
      }
    },
    {
      "type": "Feature",
      "geometry": {
        "type": "Point",
        "coordinates": [
          109.23211372,
          -0.43116279
        ]
      },
      "properties": {
        "ring_id": "RING-008",
        "radius_m": 5.0,
        "member_count": 3,
        "suspect_count": 2,
        "abnormal_count": 1,
        "mean_ndre": 0.3383,
        "mean_height_m": 7.42,
        "severity_score": 4.667,
        "priority": "Low",
        "zone": "Kuning"
      }
    },
    {
      "type": "Feature",
      "geometry": {
        "type": "Point",
        "coordinates": [
          109.23236888,
          -0.4290058
        ]
      },
      "properties": {
        "ring_id": "RING-001",
        "radius_m": 5.0,
        "member_count": 3,
        "suspect_count": 2,
        "abnormal_count": 1,
        "mean_ndre": 0.349,
        "mean_height_m": 8.19,
        "severity_score": 4.56,
        "priority": "Low",
        "zone": "Kuning"
      }
    },
    {
      "type": "Feature",
      "geometry": {
        "type": "Point",
        "coordinates": [
          109.23236032,
          -0.42318844
        ]
      },
      "properties": {
        "ring_id": "RING-080",
        "radius_m": 5.0,
        "member_count": 3,
        "suspect_count": 2,
        "abnormal_count": 1,
        "mean_ndre": 0.354,
        "mean_height_m": 4.08,
        "severity_score": 4.51,
        "priority": "Low",
        "zone": "Kuning"
      }
    },
    {
      "type": "Feature",
      "geometry": {
        "type": "Point",
        "coordinates": [
          109.23191673,
          -0.42777283
        ]
      },
      "properties": {
        "ring_id": "RING-066",
        "radius_m": 5.0,
        "member_count": 3,
        "suspect_count": 2,
        "abnormal_count": 1,
        "mean_ndre": 0.3627,
        "mean_height_m": 4.81,
        "severity_score": 4.423,
        "priority": "Low",
        "zone": "Kuning"
      }
    },
    {
      "type": "Feature",
      "geometry": {
        "type": "Point",
        "coordinates": [
          109.23336142,
          -0.42793067
        ]
      },
      "properties": {
        "ring_id": "RING-005",
        "radius_m": 5.0,
        "member_count": 3,
        "suspect_count": 2,
        "abnormal_count": 1,
        "mean_ndre": 0.3713,
        "mean_height_m": 6.55,
        "severity_score": 4.337,
        "priority": "Low",
        "zone": "Kuning"
      }
    },
    {
      "type": "Feature",
      "geometry": {
        "type": "Point",
        "coordinates": [
          109.23306384,
          -0.42509231
        ]
      },
      "properties": {
        "ring_id": "RING-071",
        "radius_m": 5.0,
        "member_count": 3,
        "suspect_count": 2,
        "abnormal_count": 1,
        "mean_ndre": 0.3853,
        "mean_height_m": 4.32,
        "severity_score": 4.197,
        "priority": "Low",
        "zone": "Kuning"
      }
    },
    {
      "type": "Feature",
      "geometry": {
        "type": "Point",
        "coordinates": [
          109.23289185,
          -0.42693478
        ]
      },
      "properties": {
        "ring_id": "RING-078",
        "radius_m": 5.0,
        "member_count": 3,
        "suspect_count": 1,
        "abnormal_count": 2,
        "mean_ndre": 0.3217,
        "mean_height_m": 3.49,
        "severity_score": 4.083,
        "priority": "Low",
        "zone": "Kuning"
      }
    },
    {
      "type": "Feature",
      "geometry": {
        "type": "Point",
        "coordinates": [
          109.2319855,
          -0.42627413
        ]
      },
      "properties": {
        "ring_id": "RING-062",
        "radius_m": 5.0,
        "member_count": 3,
        "suspect_count": 2,
        "abnormal_count": 1,
        "mean_ndre": 0.3977,
        "mean_height_m": 4.98,
        "severity_score": 4.073,
        "priority": "Low",
        "zone": "Kuning"
      }
    },
    {
      "type": "Feature",
      "geometry": {
        "type": "Point",
        "coordinates": [
          109.23301987,
          -0.43078681
        ]
      },
      "properties": {
        "ring_id": "RING-083",
        "radius_m": 5.0,
        "member_count": 3,
        "suspect_count": 1,
        "abnormal_count": 2,
        "mean_ndre": 0.3303,
        "mean_height_m": 3.72,
        "severity_score": 3.997,
        "priority": "Low",
        "zone": "Kuning"
      }
    },
    {
      "type": "Feature",
      "geometry": {
        "type": "Point",
        "coordinates": [
          109.23286061,
          -0.42669724
        ]
      },
      "properties": {
        "ring_id": "RING-073",
        "radius_m": 5.0,
        "member_count": 3,
        "suspect_count": 1,
        "abnormal_count": 2,
        "mean_ndre": 0.3337,
        "mean_height_m": 3.22,
        "severity_score": 3.963,
        "priority": "Low",
        "zone": "Kuning"
      }
    },
    {
      "type": "Feature",
      "geometry": {
        "type": "Point",
        "coordinates": [
          109.23279575,
          -0.42357514
        ]
      },
      "properties": {
        "ring_id": "RING-051",
        "radius_m": 5.0,
        "member_count": 3,
        "suspect_count": 1,
        "abnormal_count": 2,
        "mean_ndre": 0.3543,
        "mean_height_m": 4.7,
        "severity_score": 3.757,
        "priority": "Low",
        "zone": "Kuning"
      }
    },
    {
      "type": "Feature",
      "geometry": {
        "type": "Point",
        "coordinates": [
          109.23219869,
          -0.4222704
        ]
      },
      "properties": {
        "ring_id": "RING-084",
        "radius_m": 5.0,
        "member_count": 3,
        "suspect_count": 1,
        "abnormal_count": 2,
        "mean_ndre": 0.4027,
        "mean_height_m": 3.47,
        "severity_score": 3.3,
        "priority": "Low",
        "zone": "Kuning"
      }
    }
  ],
  "metadata": {
    "source": "E:\\ARENA_PILOT\\CINCIN_API\\D001A\\D001A_relative_cincin_api.csv",
    "total_rings": 84,
    "generated_by": "cincin_api.export_cincin_api_geojson"
  }
}