{
  "type": "FeatureCollection",
  "features": [
    {
      "type": "Feature",
      "geometry": {
        "type": "Point",
        "coordinates": [
          109.23171889,
          -0.42339671
        ]
      },
      "properties": {
        "ring_id": "RING-020",
        "radius_m": 5.0,
        "member_count": 9,
        "suspect_count": 0,
        "abnormal_count": 9,
        "mean_ndre": 0.3801,
        "mean_height_m": 0.0,
        "severity_score": 7.849,
        "priority": "Medium",
        "zone": "Oranye"
      }
    },
    {
      "type": "Feature",
      "geometry": {
        "type": "Point",
        "coordinates": [
          109.2313582,
          -0.42191905
        ]
      },
      "properties": {
        "ring_id": "RING-026",
        "radius_m": 5.0,
        "member_count": 8,
        "suspect_count": 0,
        "abnormal_count": 8,
        "mean_ndre": 0.3816,
        "mean_height_m": 0.0,
        "severity_score": 6.984,
        "priority": "Low",
        "zone": "Kuning"
      }
    },
    {
      "type": "Feature",
      "geometry": {
        "type": "Point",
        "coordinates": [
          109.23295684,
          -0.42656737
        ]
      },
      "properties": {
        "ring_id": "RING-011",
        "radius_m": 5.0,
        "member_count": 7,
        "suspect_count": 0,
        "abnormal_count": 7,
        "mean_ndre": 0.3833,
        "mean_height_m": 0.0,
        "severity_score": 6.117,
        "priority": "Low",
        "zone": "Kuning"
      }
    },
    {
      "type": "Feature",
      "geometry": {
        "type": "Point",
        "coordinates": [
          109.23322205,
          -0.42649269
        ]
      },
      "properties": {
        "ring_id": "RING-012",
        "radius_m": 5.0,
        "member_count": 6,
        "suspect_count": 0,
        "abnormal_count": 6,
        "mean_ndre": 0.3745,
        "mean_height_m": 0.0,
        "severity_score": 5.355,
        "priority": "Low",
        "zone": "Kuning"
      }
    },
    {
      "type": "Feature",
      "geometry": {
        "type": "Point",
        "coordinates": [
          109.23245542,
          -0.42996513
        ]
      },
      "properties": {
        "ring_id": "RING-002",
        "radius_m": 5.0,
        "member_count": 6,
        "suspect_count": 0,
        "abnormal_count": 6,
        "mean_ndre": 0.3918,
        "mean_height_m": 0.0,
        "severity_score": 5.182,
        "priority": "Low",
        "zone": "Kuning"
      }
    },
    {
      "type": "Feature",
      "geometry": {
        "type": "Point",
        "coordinates": [
          109.23169896,
          -0.42959755
        ]
      },
      "properties": {
        "ring_id": "RING-004",
        "radius_m": 5.0,
        "member_count": 5,
        "suspect_count": 0,
        "abnormal_count": 5,
        "mean_ndre": 0.388,
        "mean_height_m": 0.0,
        "severity_score": 4.37,
        "priority": "Low",
        "zone": "Kuning"
      }
    },
    {
      "type": "Feature",
      "geometry": {
        "type": "Point",
        "coordinates": [
          109.23141318,
          -0.42700355
        ]
      },
      "properties": {
        "ring_id": "RING-007",
        "radius_m": 5.0,
        "member_count": 3,
        "suspect_count": 1,
        "abnormal_count": 2,
        "mean_ndre": 0.3527,
        "mean_height_m": 0.0,
        "severity_score": 3.773,
        "priority": "Low",
        "zone": "Kuning"
      }
    },
    {
      "type": "Feature",
      "geometry": {
        "type": "Point",
        "coordinates": [
          109.2327755,
          -0.42701625
        ]
      },
      "properties": {
        "ring_id": "RING-009",
        "radius_m": 5.0,
        "member_count": 4,
        "suspect_count": 0,
        "abnormal_count": 4,
        "mean_ndre": 0.3691,
        "mean_height_m": 0.0,
        "severity_score": 3.709,
        "priority": "Low",
        "zone": "Kuning"
      }
    },
    {
      "type": "Feature",
      "geometry": {
        "type": "Point",
        "coordinates": [
          109.23254012,
          -0.42913796
        ]
      },
      "properties": {
        "ring_id": "RING-006",
        "radius_m": 5.0,
        "member_count": 4,
        "suspect_count": 0,
        "abnormal_count": 4,
        "mean_ndre": 0.387,
        "mean_height_m": 0.0,
        "severity_score": 3.53,
        "priority": "Low",
        "zone": "Kuning"
      }
    },
    {
      "type": "Feature",
      "geometry": {
        "type": "Point",
        "coordinates": [
          109.23208285,
          -0.42245378
        ]
      },
      "properties": {
        "ring_id": "RING-024",
        "radius_m": 5.0,
        "member_count": 4,
        "suspect_count": 0,
        "abnormal_count": 4,
        "mean_ndre": 0.3884,
        "mean_height_m": 0.0,
        "severity_score": 3.516,
        "priority": "Low",
        "zone": "Kuning"
      }
    },
    {
      "type": "Feature",
      "geometry": {
        "type": "Point",
        "coordinates": [
          109.23213385,
          -0.42528209
        ]
      },
      "properties": {
        "ring_id": "RING-015",
        "radius_m": 5.0,
        "member_count": 4,
        "suspect_count": 0,
        "abnormal_count": 4,
        "mean_ndre": 0.389,
        "mean_height_m": 0.0,
        "severity_score": 3.51,
        "priority": "Low",
        "zone": "Kuning"
      }
    },
    {
      "type": "Feature",
      "geometry": {
        "type": "Point",
        "coordinates": [
          109.23242262,
          -0.42953587
        ]
      },
      "properties": {
        "ring_id": "RING-005",
        "radius_m": 5.0,
        "member_count": 4,
        "suspect_count": 0,
        "abnormal_count": 4,
        "mean_ndre": 0.3935,
        "mean_height_m": 0.0,
        "severity_score": 3.465,
        "priority": "Low",
        "zone": "Kuning"
      }
    },
    {
      "type": "Feature",
      "geometry": {
        "type": "Point",
        "coordinates": [
          109.2321806,
          -0.42465635
        ]
      },
      "properties": {
        "ring_id": "RING-017",
        "radius_m": 5.0,
        "member_count": 3,
        "suspect_count": 0,
        "abnormal_count": 3,
        "mean_ndre": 0.3709,
        "mean_height_m": 0.0,
        "severity_score": 2.841,
        "priority": "Low",
        "zone": "Kuning"
      }
    },
    {
      "type": "Feature",
      "geometry": {
        "type": "Point",
        "coordinates": [
          109.23138548,
          -0.43113822
        ]
      },
      "properties": {
        "ring_id": "RING-001",
        "radius_m": 5.0,
        "member_count": 3,
        "suspect_count": 0,
        "abnormal_count": 3,
        "mean_ndre": 0.3798,
        "mean_height_m": 0.0,
        "severity_score": 2.752,
        "priority": "Low",
        "zone": "Kuning"
      }
    },
    {
      "type": "Feature",
      "geometry": {
        "type": "Point",
        "coordinates": [
          109.23280024,
          -0.42987084
        ]
      },
      "properties": {
        "ring_id": "RING-003",
        "radius_m": 5.0,
        "member_count": 3,
        "suspect_count": 0,
        "abnormal_count": 3,
        "mean_ndre": 0.3811,
        "mean_height_m": 0.0,
        "severity_score": 2.739,
        "priority": "Low",
        "zone": "Kuning"
      }
    },
    {
      "type": "Feature",
      "geometry": {
        "type": "Point",
        "coordinates": [
          109.23131967,
          -0.42511003
        ]
      },
      "properties": {
        "ring_id": "RING-016",
        "radius_m": 5.0,
        "member_count": 3,
        "suspect_count": 0,
        "abnormal_count": 3,
        "mean_ndre": 0.3814,
        "mean_height_m": 0.0,
        "severity_score": 2.736,
        "priority": "Low",
        "zone": "Kuning"
      }
    },
    {
      "type": "Feature",
      "geometry": {
        "type": "Point",
        "coordinates": [
          109.23167036,
          -0.42307283
        ]
      },
      "properties": {
        "ring_id": "RING-022",
        "radius_m": 5.0,
        "member_count": 3,
        "suspect_count": 0,
        "abnormal_count": 3,
        "mean_ndre": 0.3826,
        "mean_height_m": 0.0,
        "severity_score": 2.724,
        "priority": "Low",
        "zone": "Kuning"
      }
    },
    {
      "type": "Feature",
      "geometry": {
        "type": "Point",
        "coordinates": [
          109.23133846,
          -0.42237514
        ]
      },
      "properties": {
        "ring_id": "RING-025",
        "radius_m": 5.0,
        "member_count": 3,
        "suspect_count": 0,
        "abnormal_count": 3,
        "mean_ndre": 0.3854,
        "mean_height_m": 0.0,
        "severity_score": 2.696,
        "priority": "Low",
        "zone": "Kuning"
      }
    },
    {
      "type": "Feature",
      "geometry": {
        "type": "Point",
        "coordinates": [
          109.23312957,
          -0.42620027
        ]
      },
      "properties": {
        "ring_id": "RING-013",
        "radius_m": 5.0,
        "member_count": 3,
        "suspect_count": 0,
        "abnormal_count": 3,
        "mean_ndre": 0.3869,
        "mean_height_m": 0.0,
        "severity_score": 2.681,
        "priority": "Low",
        "zone": "Kuning"
      }
    },
    {
      "type": "Feature",
      "geometry": {
        "type": "Point",
        "coordinates": [
          109.23141511,
          -0.42167774
        ]
      },
      "properties": {
        "ring_id": "RING-027",
        "radius_m": 5.0,
        "member_count": 3,
        "suspect_count": 0,
        "abnormal_count": 3,
        "mean_ndre": 0.388,
        "mean_height_m": 0.0,
        "severity_score": 2.67,
        "priority": "Low",
        "zone": "Kuning"
      }
    },
    {
      "type": "Feature",
      "geometry": {
        "type": "Point",
        "coordinates": [
          109.23200817,
          -0.42391467
        ]
      },
      "properties": {
        "ring_id": "RING-019",
        "radius_m": 5.0,
        "member_count": 3,
        "suspect_count": 0,
        "abnormal_count": 3,
        "mean_ndre": 0.3881,
        "mean_height_m": 0.0,
        "severity_score": 2.669,
        "priority": "Low",
        "zone": "Kuning"
      }
    },
    {
      "type": "Feature",
      "geometry": {
        "type": "Point",
        "coordinates": [
          109.2320576,
          -0.42428088
        ]
      },
      "properties": {
        "ring_id": "RING-018",
        "radius_m": 5.0,
        "member_count": 3,
        "suspect_count": 0,
        "abnormal_count": 3,
        "mean_ndre": 0.3897,
        "mean_height_m": 0.0,
        "severity_score": 2.653,
        "priority": "Low",
        "zone": "Kuning"
      }
    },
    {
      "type": "Feature",
      "geometry": {
        "type": "Point",
        "coordinates": [
          109.2313887,
          -0.42329256
        ]
      },
      "properties": {
        "ring_id": "RING-021",
        "radius_m": 5.0,
        "member_count": 3,
        "suspect_count": 0,
        "abnormal_count": 3,
        "mean_ndre": 0.39,
        "mean_height_m": 0.0,
        "severity_score": 2.65,
        "priority": "Low",
        "zone": "Kuning"
      }
    },
    {
      "type": "Feature",
      "geometry": {
        "type": "Point",
        "coordinates": [
          109.2327225,
          -0.42534286
        ]
      },
      "properties": {
        "ring_id": "RING-014",
        "radius_m": 5.0,
        "member_count": 3,
        "suspect_count": 0,
        "abnormal_count": 3,
        "mean_ndre": 0.393,
        "mean_height_m": 0.0,
        "severity_score": 2.62,
        "priority": "Low",
        "zone": "Kuning"
      }
    },
    {
      "type": "Feature",
      "geometry": {
        "type": "Point",
        "coordinates": [
          109.233144,
          -0.42671479
        ]
      },
      "properties": {
        "ring_id": "RING-010",
        "radius_m": 5.0,
        "member_count": 3,
        "suspect_count": 0,
        "abnormal_count": 3,
        "mean_ndre": 0.3951,
        "mean_height_m": 0.0,
        "severity_score": 2.599,
        "priority": "Low",
        "zone": "Kuning"
      }
    },
    {
      "type": "Feature",
      "geometry": {
        "type": "Point",
        "coordinates": [
          109.23139233,
          -0.42276889
        ]
      },
      "properties": {
        "ring_id": "RING-023",
        "radius_m": 5.0,
        "member_count": 3,
        "suspect_count": 0,
        "abnormal_count": 3,
        "mean_ndre": 0.396,
        "mean_height_m": 0.0,
        "severity_score": 2.59,
        "priority": "Low",
        "zone": "Kuning"
      }
    },
    {
      "type": "Feature",
      "geometry": {
        "type": "Point",
        "coordinates": [
          109.23252235,
          -0.42705399
        ]
      },
      "properties": {
        "ring_id": "RING-008",
        "radius_m": 5.0,
        "member_count": 3,
        "suspect_count": 0,
        "abnormal_count": 3,
        "mean_ndre": 0.3975,
        "mean_height_m": 0.0,
        "severity_score": 2.575,
        "priority": "Low",
        "zone": "Kuning"
      }
    }
  ],
  "metadata": {
    "source": "E:\\ARENA_PILOT\\CINCIN_API\\D001A\\D001A_sr_2026_input_cincin_api.csv",
    "total_rings": 27,
    "generated_by": "cincin_api.export_cincin_api_geojson"
  }
}