{
  "type": "FeatureCollection",
  "features": [
    {
      "type": "Feature",
      "geometry": {
        "type": "Point",
        "coordinates": [
          109.23760803,
          -0.42517041
        ]
      },
      "properties": {
        "ring_id": "RING-034",
        "radius_m": 5.0,
        "member_count": 11,
        "suspect_count": 10,
        "abnormal_count": 1,
        "mean_ndre": 0.326,
        "mean_height_m": 5.88,
        "severity_score": 17.59,
        "priority": "High",
        "zone": "Merah"
      }
    },
    {
      "type": "Feature",
      "geometry": {
        "type": "Point",
        "coordinates": [
          109.23714931,
          -0.42652753
        ]
      },
      "properties": {
        "ring_id": "RING-065",
        "radius_m": 5.0,
        "member_count": 12,
        "suspect_count": 8,
        "abnormal_count": 4,
        "mean_ndre": 0.3269,
        "mean_height_m": 4.99,
        "severity_score": 16.931,
        "priority": "High",
        "zone": "Merah"
      }
    },
    {
      "type": "Feature",
      "geometry": {
        "type": "Point",
        "coordinates": [
          109.23790966,
          -0.42252241
        ]
      },
      "properties": {
        "ring_id": "RING-067",
        "radius_m": 5.0,
        "member_count": 12,
        "suspect_count": 6,
        "abnormal_count": 6,
        "mean_ndre": 0.2363,
        "mean_height_m": 3.58,
        "severity_score": 16.337,
        "priority": "High",
        "zone": "Merah"
      }
    },
    {
      "type": "Feature",
      "geometry": {
        "type": "Point",
        "coordinates": [
          109.23632788,
          -0.42703928
        ]
      },
      "properties": {
        "ring_id": "RING-053",
        "radius_m": 5.0,
        "member_count": 10,
        "suspect_count": 9,
        "abnormal_count": 1,
        "mean_ndre": 0.356,
        "mean_height_m": 5.21,
        "severity_score": 15.69,
        "priority": "High",
        "zone": "Merah"
      }
    },
    {
      "type": "Feature",
      "geometry": {
        "type": "Point",
        "coordinates": [
          109.23763301,
          -0.42280481
        ]
      },
      "properties": {
        "ring_id": "RING-057",
        "radius_m": 5.0,
        "member_count": 9,
        "suspect_count": 9,
        "abnormal_count": 0,
        "mean_ndre": 0.3151,
        "mean_height_m": 6.2,
        "severity_score": 15.249,
        "priority": "High",
        "zone": "Merah"
      }
    },
    {
      "type": "Feature",
      "geometry": {
        "type": "Point",
        "coordinates": [
          109.23768757,
          -0.42404793
        ]
      },
      "properties": {
        "ring_id": "RING-004",
        "radius_m": 5.0,
        "member_count": 9,
        "suspect_count": 9,
        "abnormal_count": 0,
        "mean_ndre": 0.3577,
        "mean_height_m": 11.88,
        "severity_score": 14.823,
        "priority": "High",
        "zone": "Merah"
      }
    },
    {
      "type": "Feature",
      "geometry": {
        "type": "Point",
        "coordinates": [
          109.23829614,
          -0.4246078
        ]
      },
      "properties": {
        "ring_id": "RING-036",
        "radius_m": 5.0,
        "member_count": 10,
        "suspect_count": 7,
        "abnormal_count": 3,
        "mean_ndre": 0.3083,
        "mean_height_m": 5.83,
        "severity_score": 14.667,
        "priority": "High",
        "zone": "Merah"
      }
    },
    {
      "type": "Feature",
      "geometry": {
        "type": "Point",
        "coordinates": [
          109.236624,
          -0.42266394
        ]
      },
      "properties": {
        "ring_id": "RING-072",
        "radius_m": 5.0,
        "member_count": 10,
        "suspect_count": 7,
        "abnormal_count": 3,
        "mean_ndre": 0.3402,
        "mean_height_m": 4.6,
        "severity_score": 14.348,
        "priority": "High",
        "zone": "Merah"
      }
    },
    {
      "type": "Feature",
      "geometry": {
        "type": "Point",
        "coordinates": [
          109.23730659,
          -0.42514487
        ]
      },
      "properties": {
        "ring_id": "RING-021",
        "radius_m": 5.0,
        "member_count": 8,
        "suspect_count": 8,
        "abnormal_count": 0,
        "mean_ndre": 0.3409,
        "mean_height_m": 6.8,
        "severity_score": 13.391,
        "priority": "High",
        "zone": "Merah"
      }
    },
    {
      "type": "Feature",
      "geometry": {
        "type": "Point",
        "coordinates": [
          109.23705032,
          -0.42728557
        ]
      },
      "properties": {
        "ring_id": "RING-051",
        "radius_m": 5.0,
        "member_count": 8,
        "suspect_count": 7,
        "abnormal_count": 1,
        "mean_ndre": 0.3207,
        "mean_height_m": 5.97,
        "severity_score": 12.843,
        "priority": "High",
        "zone": "Merah"
      }
    },
    {
      "type": "Feature",
      "geometry": {
        "type": "Point",
        "coordinates": [
          109.23591613,
          -0.42867292
        ]
      },
      "properties": {
        "ring_id": "RING-025",
        "radius_m": 5.0,
        "member_count": 9,
        "suspect_count": 4,
        "abnormal_count": 5,
        "mean_ndre": 0.2677,
        "mean_height_m": 4.73,
        "severity_score": 11.973,
        "priority": "Medium",
        "zone": "Oranye"
      }
    },
    {
      "type": "Feature",
      "geometry": {
        "type": "Point",
        "coordinates": [
          109.23837845,
          -0.42408406
        ]
      },
      "properties": {
        "ring_id": "RING-012",
        "radius_m": 5.0,
        "member_count": 7,
        "suspect_count": 5,
        "abnormal_count": 2,
        "mean_ndre": 0.2691,
        "mean_height_m": 6.82,
        "severity_score": 11.009,
        "priority": "Medium",
        "zone": "Oranye"
      }
    },
    {
      "type": "Feature",
      "geometry": {
        "type": "Point",
        "coordinates": [
          109.23831936,
          -0.42874959
        ]
      },
      "properties": {
        "ring_id": "RING-005",
        "radius_m": 5.0,
        "member_count": 6,
        "suspect_count": 6,
        "abnormal_count": 0,
        "mean_ndre": 0.2633,
        "mean_height_m": 11.55,
        "severity_score": 10.967,
        "priority": "Medium",
        "zone": "Oranye"
      }
    },
    {
      "type": "Feature",
      "geometry": {
        "type": "Point",
        "coordinates": [
          109.23589664,
          -0.425509
        ]
      },
      "properties": {
        "ring_id": "RING-060",
        "radius_m": 5.0,
        "member_count": 6,
        "suspect_count": 6,
        "abnormal_count": 0,
        "mean_ndre": 0.2932,
        "mean_height_m": 6.21,
        "severity_score": 10.668,
        "priority": "Medium",
        "zone": "Oranye"
      }
    },
    {
      "type": "Feature",
      "geometry": {
        "type": "Point",
        "coordinates": [
          109.23828385,
          -0.42722116
        ]
      },
      "properties": {
        "ring_id": "RING-016",
        "radius_m": 5.0,
        "member_count": 6,
        "suspect_count": 6,
        "abnormal_count": 0,
        "mean_ndre": 0.3267,
        "mean_height_m": 8.32,
        "severity_score": 10.333,
        "priority": "Medium",
        "zone": "Oranye"
      }
    },
    {
      "type": "Feature",
      "geometry": {
        "type": "Point",
        "coordinates": [
          109.23682492,
          -0.42617319
        ]
      },
      "properties": {
        "ring_id": "RING-041",
        "radius_m": 5.0,
        "member_count": 6,
        "suspect_count": 6,
        "abnormal_count": 0,
        "mean_ndre": 0.3372,
        "mean_height_m": 6.87,
        "severity_score": 10.228,
        "priority": "Medium",
        "zone": "Oranye"
      }
    },
    {
      "type": "Feature",
      "geometry": {
        "type": "Point",
        "coordinates": [
          109.23831207,
          -0.42262943
        ]
      },
      "properties": {
        "ring_id": "RING-024",
        "radius_m": 5.0,
        "member_count": 6,
        "suspect_count": 5,
        "abnormal_count": 1,
        "mean_ndre": 0.2908,
        "mean_height_m": 7.63,
        "severity_score": 9.942,
        "priority": "Medium",
        "zone": "Oranye"
      }
    },
    {
      "type": "Feature",
      "geometry": {
        "type": "Point",
        "coordinates": [
          109.23798708,
          -0.423102
        ]
      },
      "properties": {
        "ring_id": "RING-048",
        "radius_m": 5.0,
        "member_count": 6,
        "suspect_count": 5,
        "abnormal_count": 1,
        "mean_ndre": 0.3327,
        "mean_height_m": 5.71,
        "severity_score": 9.523,
        "priority": "Medium",
        "zone": "Oranye"
      }
    },
    {
      "type": "Feature",
      "geometry": {
        "type": "Point",
        "coordinates": [
          109.23803895,
          -0.42784677
        ]
      },
      "properties": {
        "ring_id": "RING-070",
        "radius_m": 5.0,
        "member_count": 7,
        "suspect_count": 4,
        "abnormal_count": 3,
        "mean_ndre": 0.3486,
        "mean_height_m": 4.84,
        "severity_score": 9.464,
        "priority": "Medium",
        "zone": "Oranye"
      }
    },
    {
      "type": "Feature",
      "geometry": {
        "type": "Point",
        "coordinates": [
          109.23826723,
          -0.43066651
        ]
      },
      "properties": {
        "ring_id": "RING-010",
        "radius_m": 5.0,
        "member_count": 5,
        "suspect_count": 5,
        "abnormal_count": 0,
        "mean_ndre": 0.273,
        "mean_height_m": 11.23,
        "severity_score": 9.27,
        "priority": "Medium",
        "zone": "Oranye"
      }
    },
    {
      "type": "Feature",
      "geometry": {
        "type": "Point",
        "coordinates": [
          109.23588555,
          -0.42674383
        ]
      },
      "properties": {
        "ring_id": "RING-020",
        "radius_m": 5.0,
        "member_count": 5,
        "suspect_count": 5,
        "abnormal_count": 0,
        "mean_ndre": 0.2828,
        "mean_height_m": 7.42,
        "severity_score": 9.172,
        "priority": "Medium",
        "zone": "Oranye"
      }
    },
    {
      "type": "Feature",
      "geometry": {
        "type": "Point",
        "coordinates": [
          109.236798,
          -0.42704553
        ]
      },
      "properties": {
        "ring_id": "RING-071",
        "radius_m": 5.0,
        "member_count": 6,
        "suspect_count": 4,
        "abnormal_count": 2,
        "mean_ndre": 0.2947,
        "mean_height_m": 4.74,
        "severity_score": 9.153,
        "priority": "Medium",
        "zone": "Oranye"
      }
    },
    {
      "type": "Feature",
      "geometry": {
        "type": "Point",
        "coordinates": [
          109.23674799,
          -0.42747941
        ]
      },
      "properties": {
        "ring_id": "RING-023",
        "radius_m": 5.0,
        "member_count": 5,
        "suspect_count": 5,
        "abnormal_count": 0,
        "mean_ndre": 0.3222,
        "mean_height_m": 8.07,
        "severity_score": 8.778,
        "priority": "Medium",
        "zone": "Oranye"
      }
    },
    {
      "type": "Feature",
      "geometry": {
        "type": "Point",
        "coordinates": [
          109.23754677,
          -0.42693294
        ]
      },
      "properties": {
        "ring_id": "RING-026",
        "radius_m": 5.0,
        "member_count": 5,
        "suspect_count": 5,
        "abnormal_count": 0,
        "mean_ndre": 0.337,
        "mean_height_m": 6.72,
        "severity_score": 8.63,
        "priority": "Medium",
        "zone": "Oranye"
      }
    },
    {
      "type": "Feature",
      "geometry": {
        "type": "Point",
        "coordinates": [
          109.23741531,
          -0.42632387
        ]
      },
      "properties": {
        "ring_id": "RING-045",
        "radius_m": 5.0,
        "member_count": 5,
        "suspect_count": 5,
        "abnormal_count": 0,
        "mean_ndre": 0.3376,
        "mean_height_m": 7.16,
        "severity_score": 8.624,
        "priority": "Medium",
        "zone": "Oranye"
      }
    },
    {
      "type": "Feature",
      "geometry": {
        "type": "Point",
        "coordinates": [
          109.23749946,
          -0.42362066
        ]
      },
      "properties": {
        "ring_id": "RING-001",
        "radius_m": 5.0,
        "member_count": 5,
        "suspect_count": 5,
        "abnormal_count": 0,
        "mean_ndre": 0.3376,
        "mean_height_m": 14.3,
        "severity_score": 8.624,
        "priority": "Medium",
        "zone": "Oranye"
      }
    },
    {
      "type": "Feature",
      "geometry": {
        "type": "Point",
        "coordinates": [
          109.23756336,
          -0.43058993
        ]
      },
      "properties": {
        "ring_id": "RING-015",
        "radius_m": 5.0,
        "member_count": 5,
        "suspect_count": 5,
        "abnormal_count": 0,
        "mean_ndre": 0.3438,
        "mean_height_m": 10.4,
        "severity_score": 8.562,
        "priority": "Medium",
        "zone": "Oranye"
      }
    },
    {
      "type": "Feature",
      "geometry": {
        "type": "Point",
        "coordinates": [
          109.23668635,
          -0.42559836
        ]
      },
      "properties": {
        "ring_id": "RING-082",
        "radius_m": 5.0,
        "member_count": 5,
        "suspect_count": 4,
        "abnormal_count": 1,
        "mean_ndre": 0.3172,
        "mean_height_m": 4.65,
        "severity_score": 8.078,
        "priority": "Medium",
        "zone": "Oranye"
      }
    },
    {
      "type": "Feature",
      "geometry": {
        "type": "Point",
        "coordinates": [
          109.23839288,
          -0.42294908
        ]
      },
      "properties": {
        "ring_id": "RING-014",
        "radius_m": 5.0,
        "member_count": 4,
        "suspect_count": 4,
        "abnormal_count": 0,
        "mean_ndre": 0.236,
        "mean_height_m": 9.33,
        "severity_score": 8.04,
        "priority": "Medium",
        "zone": "Oranye"
      }
    },
    {
      "type": "Feature",
      "geometry": {
        "type": "Point",
        "coordinates": [
          109.23592146,
          -0.42327341
        ]
      },
      "properties": {
        "ring_id": "RING-028",
        "radius_m": 5.0,
        "member_count": 5,
        "suspect_count": 4,
        "abnormal_count": 1,
        "mean_ndre": 0.338,
        "mean_height_m": 6.39,
        "severity_score": 7.87,
        "priority": "Medium",
        "zone": "Oranye"
      }
    },
    {
      "type": "Feature",
      "geometry": {
        "type": "Point",
        "coordinates": [
          109.23687341,
          -0.42657911
        ]
      },
      "properties": {
        "ring_id": "RING-069",
        "radius_m": 5.0,
        "member_count": 5,
        "suspect_count": 4,
        "abnormal_count": 1,
        "mean_ndre": 0.3472,
        "mean_height_m": 4.87,
        "severity_score": 7.778,
        "priority": "Medium",
        "zone": "Oranye"
      }
    },
    {
      "type": "Feature",
      "geometry": {
        "type": "Point",
        "coordinates": [
          109.23801917,
          -0.42733357
        ]
      },
      "properties": {
        "ring_id": "RING-031",
        "radius_m": 5.0,
        "member_count": 5,
        "suspect_count": 4,
        "abnormal_count": 1,
        "mean_ndre": 0.3486,
        "mean_height_m": 5.95,
        "severity_score": 7.764,
        "priority": "Medium",
        "zone": "Oranye"
      }
    },
    {
      "type": "Feature",
      "geometry": {
        "type": "Point",
        "coordinates": [
          109.23631782,
          -0.42532047
        ]
      },
      "properties": {
        "ring_id": "RING-075",
        "radius_m": 5.0,
        "member_count": 6,
        "suspect_count": 3,
        "abnormal_count": 3,
        "mean_ndre": 0.3782,
        "mean_height_m": 4.15,
        "severity_score": 7.568,
        "priority": "Medium",
        "zone": "Oranye"
      }
    },
    {
      "type": "Feature",
      "geometry": {
        "type": "Point",
        "coordinates": [
          109.23834171,
          -0.42378634
        ]
      },
      "properties": {
        "ring_id": "RING-006",
        "radius_m": 5.0,
        "member_count": 4,
        "suspect_count": 4,
        "abnormal_count": 0,
        "mean_ndre": 0.2945,
        "mean_height_m": 11.12,
        "severity_score": 7.455,
        "priority": "Medium",
        "zone": "Oranye"
      }
    },
    {
      "type": "Feature",
      "geometry": {
        "type": "Point",
        "coordinates": [
          109.23741966,
          -0.42714232
        ]
      },
      "properties": {
        "ring_id": "RING-063",
        "radius_m": 5.0,
        "member_count": 4,
        "suspect_count": 4,
        "abnormal_count": 0,
        "mean_ndre": 0.302,
        "mean_height_m": 5.91,
        "severity_score": 7.38,
        "priority": "Medium",
        "zone": "Oranye"
      }
    },
    {
      "type": "Feature",
      "geometry": {
        "type": "Point",
        "coordinates": [
          109.23721944,
          -0.42325424
        ]
      },
      "properties": {
        "ring_id": "RING-047",
        "radius_m": 5.0,
        "member_count": 4,
        "suspect_count": 4,
        "abnormal_count": 0,
        "mean_ndre": 0.322,
        "mean_height_m": 7.13,
        "severity_score": 7.18,
        "priority": "Medium",
        "zone": "Oranye"
      }
    },
    {
      "type": "Feature",
      "geometry": {
        "type": "Point",
        "coordinates": [
          109.23812959,
          -0.42286289
        ]
      },
      "properties": {
        "ring_id": "RING-040",
        "radius_m": 5.0,
        "member_count": 4,
        "suspect_count": 4,
        "abnormal_count": 0,
        "mean_ndre": 0.3292,
        "mean_height_m": 7.46,
        "severity_score": 7.108,
        "priority": "Medium",
        "zone": "Oranye"
      }
    },
    {
      "type": "Feature",
      "geometry": {
        "type": "Point",
        "coordinates": [
          109.23695784,
          -0.42265565
        ]
      },
      "properties": {
        "ring_id": "RING-038",
        "radius_m": 5.0,
        "member_count": 4,
        "suspect_count": 4,
        "abnormal_count": 0,
        "mean_ndre": 0.3342,
        "mean_height_m": 7.06,
        "severity_score": 7.058,
        "priority": "Medium",
        "zone": "Oranye"
      }
    },
    {
      "type": "Feature",
      "geometry": {
        "type": "Point",
        "coordinates": [
          109.23679044,
          -0.42456436
        ]
      },
      "properties": {
        "ring_id": "RING-058",
        "radius_m": 5.0,
        "member_count": 4,
        "suspect_count": 4,
        "abnormal_count": 0,
        "mean_ndre": 0.3402,
        "mean_height_m": 6.56,
        "severity_score": 6.998,
        "priority": "Low",
        "zone": "Kuning"
      }
    },
    {
      "type": "Feature",
      "geometry": {
        "type": "Point",
        "coordinates": [
          109.23761499,
          -0.42754779
        ]
      },
      "properties": {
        "ring_id": "RING-055",
        "radius_m": 5.0,
        "member_count": 5,
        "suspect_count": 3,
        "abnormal_count": 2,
        "mean_ndre": 0.352,
        "mean_height_m": 5.05,
        "severity_score": 6.98,
        "priority": "Low",
        "zone": "Kuning"
      }
    },
    {
      "type": "Feature",
      "geometry": {
        "type": "Point",
        "coordinates": [
          109.23655269,
          -0.42518732
        ]
      },
      "properties": {
        "ring_id": "RING-078",
        "radius_m": 5.0,
        "member_count": 5,
        "suspect_count": 3,
        "abnormal_count": 2,
        "mean_ndre": 0.3524,
        "mean_height_m": 4.49,
        "severity_score": 6.976,
        "priority": "Low",
        "zone": "Kuning"
      }
    },
    {
      "type": "Feature",
      "geometry": {
        "type": "Point",
        "coordinates": [
          109.23679746,
          -0.43072637
        ]
      },
      "properties": {
        "ring_id": "RING-019",
        "radius_m": 5.0,
        "member_count": 4,
        "suspect_count": 4,
        "abnormal_count": 0,
        "mean_ndre": 0.344,
        "mean_height_m": 7.4,
        "severity_score": 6.96,
        "priority": "Low",
        "zone": "Kuning"
      }
    },
    {
      "type": "Feature",
      "geometry": {
        "type": "Point",
        "coordinates": [
          109.23739827,
          -0.43082124
        ]
      },
      "properties": {
        "ring_id": "RING-009",
        "radius_m": 5.0,
        "member_count": 4,
        "suspect_count": 4,
        "abnormal_count": 0,
        "mean_ndre": 0.3443,
        "mean_height_m": 9.16,
        "severity_score": 6.958,
        "priority": "Low",
        "zone": "Kuning"
      }
    },
    {
      "type": "Feature",
      "geometry": {
        "type": "Point",
        "coordinates": [
          109.23688179,
          -0.42232466
        ]
      },
      "properties": {
        "ring_id": "RING-061",
        "radius_m": 5.0,
        "member_count": 4,
        "suspect_count": 2,
        "abnormal_count": 2,
        "mean_ndre": 0.195,
        "mean_height_m": 4.26,
        "severity_score": 6.95,
        "priority": "Low",
        "zone": "Kuning"
      }
    },
    {
      "type": "Feature",
      "geometry": {
        "type": "Point",
        "coordinates": [
          109.23763603,
          -0.42665394
        ]
      },
      "properties": {
        "ring_id": "RING-077",
        "radius_m": 5.0,
        "member_count": 4,
        "suspect_count": 4,
        "abnormal_count": 0,
        "mean_ndre": 0.3458,
        "mean_height_m": 5.63,
        "severity_score": 6.943,
        "priority": "Low",
        "zone": "Kuning"
      }
    },
    {
      "type": "Feature",
      "geometry": {
        "type": "Point",
        "coordinates": [
          109.23684757,
          -0.42520914
        ]
      },
      "properties": {
        "ring_id": "RING-084",
        "radius_m": 5.0,
        "member_count": 4,
        "suspect_count": 4,
        "abnormal_count": 0,
        "mean_ndre": 0.3492,
        "mean_height_m": 4.57,
        "severity_score": 6.908,
        "priority": "Low",
        "zone": "Kuning"
      }
    },
    {
      "type": "Feature",
      "geometry": {
        "type": "Point",
        "coordinates": [
          109.23662447,
          -0.42312875
        ]
      },
      "properties": {
        "ring_id": "RING-076",
        "radius_m": 5.0,
        "member_count": 4,
        "suspect_count": 4,
        "abnormal_count": 0,
        "mean_ndre": 0.3548,
        "mean_height_m": 5.67,
        "severity_score": 6.853,
        "priority": "Low",
        "zone": "Kuning"
      }
    },
    {
      "type": "Feature",
      "geometry": {
        "type": "Point",
        "coordinates": [
          109.23736098,
          -0.42448073
        ]
      },
      "properties": {
        "ring_id": "RING-011",
        "radius_m": 5.0,
        "member_count": 4,
        "suspect_count": 4,
        "abnormal_count": 0,
        "mean_ndre": 0.3642,
        "mean_height_m": 9.94,
        "severity_score": 6.758,
        "priority": "Low",
        "zone": "Kuning"
      }
    },
    {
      "type": "Feature",
      "geometry": {
        "type": "Point",
        "coordinates": [
          109.23747533,
          -0.4282006
        ]
      },
      "properties": {
        "ring_id": "RING-017",
        "radius_m": 5.0,
        "member_count": 4,
        "suspect_count": 4,
        "abnormal_count": 0,
        "mean_ndre": 0.3698,
        "mean_height_m": 7.75,
        "severity_score": 6.703,
        "priority": "Low",
        "zone": "Kuning"
      }
    },
    {
      "type": "Feature",
      "geometry": {
        "type": "Point",
        "coordinates": [
          109.23593081,
          -0.42992146
        ]
      },
      "properties": {
        "ring_id": "RING-035",
        "radius_m": 5.0,
        "member_count": 4,
        "suspect_count": 3,
        "abnormal_count": 1,
        "mean_ndre": 0.3013,
        "mean_height_m": 6.59,
        "severity_score": 6.638,
        "priority": "Low",
        "zone": "Kuning"
      }
    },
    {
      "type": "Feature",
      "geometry": {
        "type": "Point",
        "coordinates": [
          109.23828962,
          -0.42770749
        ]
      },
      "properties": {
        "ring_id": "RING-054",
        "radius_m": 5.0,
        "member_count": 4,
        "suspect_count": 3,
        "abnormal_count": 1,
        "mean_ndre": 0.3107,
        "mean_height_m": 5.74,
        "severity_score": 6.543,
        "priority": "Low",
        "zone": "Kuning"
      }
    },
    {
      "type": "Feature",
      "geometry": {
        "type": "Point",
        "coordinates": [
          109.23785493,
          -0.42440387
        ]
      },
      "properties": {
        "ring_id": "RING-066",
        "radius_m": 5.0,
        "member_count": 4,
        "suspect_count": 3,
        "abnormal_count": 1,
        "mean_ndre": 0.321,
        "mean_height_m": 5.4,
        "severity_score": 6.44,
        "priority": "Low",
        "zone": "Kuning"
      }
    },
    {
      "type": "Feature",
      "geometry": {
        "type": "Point",
        "coordinates": [
          109.23590468,
          -0.42767457
        ]
      },
      "properties": {
        "ring_id": "RING-039",
        "radius_m": 5.0,
        "member_count": 3,
        "suspect_count": 3,
        "abnormal_count": 0,
        "mean_ndre": 0.28,
        "mean_height_m": 7.56,
        "severity_score": 6.0,
        "priority": "Low",
        "zone": "Kuning"
      }
    },
    {
      "type": "Feature",
      "geometry": {
        "type": "Point",
        "coordinates": [
          109.23832574,
          -0.42687701
        ]
      },
      "properties": {
        "ring_id": "RING-079",
        "radius_m": 5.0,
        "member_count": 4,
        "suspect_count": 2,
        "abnormal_count": 2,
        "mean_ndre": 0.292,
        "mean_height_m": 4.39,
        "severity_score": 5.98,
        "priority": "Low",
        "zone": "Kuning"
      }
    },
    {
      "type": "Feature",
      "geometry": {
        "type": "Point",
        "coordinates": [
          109.23641225,
          -0.42367298
        ]
      },
      "properties": {
        "ring_id": "RING-013",
        "radius_m": 5.0,
        "member_count": 4,
        "suspect_count": 3,
        "abnormal_count": 1,
        "mean_ndre": 0.367,
        "mean_height_m": 7.61,
        "severity_score": 5.98,
        "priority": "Low",
        "zone": "Kuning"
      }
    },
    {
      "type": "Feature",
      "geometry": {
        "type": "Point",
        "coordinates": [
          109.23588363,
          -0.42609309
        ]
      },
      "properties": {
        "ring_id": "RING-032",
        "radius_m": 5.0,
        "member_count": 3,
        "suspect_count": 3,
        "abnormal_count": 0,
        "mean_ndre": 0.2837,
        "mean_height_m": 6.88,
        "severity_score": 5.963,
        "priority": "Low",
        "zone": "Kuning"
      }
    },
    {
      "type": "Feature",
      "geometry": {
        "type": "Point",
        "coordinates": [
          109.23588468,
          -0.42476845
        ]
      },
      "properties": {
        "ring_id": "RING-042",
        "radius_m": 5.0,
        "member_count": 3,
        "suspect_count": 3,
        "abnormal_count": 0,
        "mean_ndre": 0.2867,
        "mean_height_m": 6.54,
        "severity_score": 5.933,
        "priority": "Low",
        "zone": "Kuning"
      }
    },
    {
      "type": "Feature",
      "geometry": {
        "type": "Point",
        "coordinates": [
          109.23589843,
          -0.42912375
        ]
      },
      "properties": {
        "ring_id": "RING-064",
        "radius_m": 5.0,
        "member_count": 4,
        "suspect_count": 2,
        "abnormal_count": 2,
        "mean_ndre": 0.3022,
        "mean_height_m": 3.93,
        "severity_score": 5.878,
        "priority": "Low",
        "zone": "Kuning"
      }
    },
    {
      "type": "Feature",
      "geometry": {
        "type": "Point",
        "coordinates": [
          109.23769662,
          -0.42237503
        ]
      },
      "properties": {
        "ring_id": "RING-090",
        "radius_m": 5.0,
        "member_count": 4,
        "suspect_count": 0,
        "abnormal_count": 4,
        "mean_ndre": 0.172,
        "mean_height_m": 0.74,
        "severity_score": 5.68,
        "priority": "Low",
        "zone": "Kuning"
      }
    },
    {
      "type": "Feature",
      "geometry": {
        "type": "Point",
        "coordinates": [
          109.23588549,
          -0.42514012
        ]
      },
      "properties": {
        "ring_id": "RING-029",
        "radius_m": 5.0,
        "member_count": 3,
        "suspect_count": 2,
        "abnormal_count": 1,
        "mean_ndre": 0.249,
        "mean_height_m": 5.51,
        "severity_score": 5.56,
        "priority": "Low",
        "zone": "Kuning"
      }
    },
    {
      "type": "Feature",
      "geometry": {
        "type": "Point",
        "coordinates": [
          109.2363378,
          -0.42567688
        ]
      },
      "properties": {
        "ring_id": "RING-081",
        "radius_m": 5.0,
        "member_count": 4,
        "suspect_count": 2,
        "abnormal_count": 2,
        "mean_ndre": 0.3397,
        "mean_height_m": 4.42,
        "severity_score": 5.503,
        "priority": "Low",
        "zone": "Kuning"
      }
    },
    {
      "type": "Feature",
      "geometry": {
        "type": "Point",
        "coordinates": [
          109.2362812,
          -0.42223759
        ]
      },
      "properties": {
        "ring_id": "RING-088",
        "radius_m": 5.0,
        "member_count": 4,
        "suspect_count": 0,
        "abnormal_count": 4,
        "mean_ndre": 0.1928,
        "mean_height_m": 1.73,
        "severity_score": 5.473,
        "priority": "Low",
        "zone": "Kuning"
      }
    },
    {
      "type": "Feature",
      "geometry": {
        "type": "Point",
        "coordinates": [
          109.23827896,
          -0.42504406
        ]
      },
      "properties": {
        "ring_id": "RING-056",
        "radius_m": 5.0,
        "member_count": 3,
        "suspect_count": 3,
        "abnormal_count": 0,
        "mean_ndre": 0.334,
        "mean_height_m": 6.61,
        "severity_score": 5.46,
        "priority": "Low",
        "zone": "Kuning"
      }
    },
    {
      "type": "Feature",
      "geometry": {
        "type": "Point",
        "coordinates": [
          109.23838597,
          -0.42319042
        ]
      },
      "properties": {
        "ring_id": "RING-030",
        "radius_m": 5.0,
        "member_count": 3,
        "suspect_count": 3,
        "abnormal_count": 0,
        "mean_ndre": 0.335,
        "mean_height_m": 8.15,
        "severity_score": 5.45,
        "priority": "Low",
        "zone": "Kuning"
      }
    },
    {
      "type": "Feature",
      "geometry": {
        "type": "Point",
        "coordinates": [
          109.23751548,
          -0.42414832
        ]
      },
      "properties": {
        "ring_id": "RING-008",
        "radius_m": 5.0,
        "member_count": 3,
        "suspect_count": 3,
        "abnormal_count": 0,
        "mean_ndre": 0.3397,
        "mean_height_m": 12.44,
        "severity_score": 5.403,
        "priority": "Low",
        "zone": "Kuning"
      }
    },
    {
      "type": "Feature",
      "geometry": {
        "type": "Point",
        "coordinates": [
          109.23718641,
          -0.42550289
        ]
      },
      "properties": {
        "ring_id": "RING-062",
        "radius_m": 5.0,
        "member_count": 3,
        "suspect_count": 3,
        "abnormal_count": 0,
        "mean_ndre": 0.3403,
        "mean_height_m": 6.19,
        "severity_score": 5.397,
        "priority": "Low",
        "zone": "Kuning"
      }
    },
    {
      "type": "Feature",
      "geometry": {
        "type": "Point",
        "coordinates": [
          109.23819463,
          -0.42652905
        ]
      },
      "properties": {
        "ring_id": "RING-049",
        "radius_m": 5.0,
        "member_count": 3,
        "suspect_count": 3,
        "abnormal_count": 0,
        "mean_ndre": 0.3433,
        "mean_height_m": 6.82,
        "severity_score": 5.367,
        "priority": "Low",
        "zone": "Kuning"
      }
    },
    {
      "type": "Feature",
      "geometry": {
        "type": "Point",
        "coordinates": [
          109.23659014,
          -0.42334977
        ]
      },
      "properties": {
        "ring_id": "RING-022",
        "radius_m": 5.0,
        "member_count": 3,
        "suspect_count": 3,
        "abnormal_count": 0,
        "mean_ndre": 0.3463,
        "mean_height_m": 7.75,
        "severity_score": 5.337,
        "priority": "Low",
        "zone": "Kuning"
      }
    },
    {
      "type": "Feature",
      "geometry": {
        "type": "Point",
        "coordinates": [
          109.23710608,
          -0.4304304
        ]
      },
      "properties": {
        "ring_id": "RING-044",
        "radius_m": 5.0,
        "member_count": 3,
        "suspect_count": 3,
        "abnormal_count": 0,
        "mean_ndre": 0.3477,
        "mean_height_m": 8.03,
        "severity_score": 5.323,
        "priority": "Low",
        "zone": "Kuning"
      }
    },
    {
      "type": "Feature",
      "geometry": {
        "type": "Point",
        "coordinates": [
          109.23756344,
          -0.42917067
        ]
      },
      "properties": {
        "ring_id": "RING-007",
        "radius_m": 5.0,
        "member_count": 3,
        "suspect_count": 3,
        "abnormal_count": 0,
        "mean_ndre": 0.348,
        "mean_height_m": 11.21,
        "severity_score": 5.32,
        "priority": "Low",
        "zone": "Kuning"
      }
    },
    {
      "type": "Feature",
      "geometry": {
        "type": "Point",
        "coordinates": [
          109.23618042,
          -0.42581057
        ]
      },
      "properties": {
        "ring_id": "RING-046",
        "radius_m": 5.0,
        "member_count": 3,
        "suspect_count": 3,
        "abnormal_count": 0,
        "mean_ndre": 0.3517,
        "mean_height_m": 5.63,
        "severity_score": 5.283,
        "priority": "Low",
        "zone": "Kuning"
      }
    },
    {
      "type": "Feature",
      "geometry": {
        "type": "Point",
        "coordinates": [
          109.23717769,
          -0.42234538
        ]
      },
      "properties": {
        "ring_id": "RING-089",
        "radius_m": 5.0,
        "member_count": 3,
        "suspect_count": 0,
        "abnormal_count": 3,
        "mean_ndre": 0.131,
        "mean_height_m": 1.14,
        "severity_score": 5.24,
        "priority": "Low",
        "zone": "Kuning"
      }
    },
    {
      "type": "Feature",
      "geometry": {
        "type": "Point",
        "coordinates": [
          109.23749864,
          -0.42249571
        ]
      },
      "properties": {
        "ring_id": "RING-033",
        "radius_m": 5.0,
        "member_count": 3,
        "suspect_count": 3,
        "abnormal_count": 0,
        "mean_ndre": 0.356,
        "mean_height_m": 8.24,
        "severity_score": 5.24,
        "priority": "Low",
        "zone": "Kuning"
      }
    },
    {
      "type": "Feature",
      "geometry": {
        "type": "Point",
        "coordinates": [
          109.23700493,
          -0.42823398
        ]
      },
      "properties": {
        "ring_id": "RING-027",
        "radius_m": 5.0,
        "member_count": 3,
        "suspect_count": 3,
        "abnormal_count": 0,
        "mean_ndre": 0.361,
        "mean_height_m": 9.34,
        "severity_score": 5.19,
        "priority": "Low",
        "zone": "Kuning"
      }
    },
    {
      "type": "Feature",
      "geometry": {
        "type": "Point",
        "coordinates": [
          109.23776397,
          -0.4236046
        ]
      },
      "properties": {
        "ring_id": "RING-002",
        "radius_m": 5.0,
        "member_count": 3,
        "suspect_count": 3,
        "abnormal_count": 0,
        "mean_ndre": 0.3643,
        "mean_height_m": 15.86,
        "severity_score": 5.157,
        "priority": "Low",
        "zone": "Kuning"
      }
    },
    {
      "type": "Feature",
      "geometry": {
        "type": "Point",
        "coordinates": [
          109.23816602,
          -0.42330461
        ]
      },
      "properties": {
        "ring_id": "RING-050",
        "radius_m": 5.0,
        "member_count": 3,
        "suspect_count": 3,
        "abnormal_count": 0,
        "mean_ndre": 0.3653,
        "mean_height_m": 6.88,
        "severity_score": 5.147,
        "priority": "Low",
        "zone": "Kuning"
      }
    },
    {
      "type": "Feature",
      "geometry": {
        "type": "Point",
        "coordinates": [
          109.23795517,
          -0.42352988
        ]
      },
      "properties": {
        "ring_id": "RING-003",
        "radius_m": 5.0,
        "member_count": 3,
        "suspect_count": 3,
        "abnormal_count": 0,
        "mean_ndre": 0.373,
        "mean_height_m": 14.85,
        "severity_score": 5.07,
        "priority": "Low",
        "zone": "Kuning"
      }
    },
    {
      "type": "Feature",
      "geometry": {
        "type": "Point",
        "coordinates": [
          109.23831619,
          -0.42984952
        ]
      },
      "properties": {
        "ring_id": "RING-018",
        "radius_m": 5.0,
        "member_count": 3,
        "suspect_count": 2,
        "abnormal_count": 1,
        "mean_ndre": 0.3027,
        "mean_height_m": 5.94,
        "severity_score": 5.023,
        "priority": "Low",
        "zone": "Kuning"
      }
    },
    {
      "type": "Feature",
      "geometry": {
        "type": "Point",
        "coordinates": [
          109.23643685,
          -0.42593105
        ]
      },
      "properties": {
        "ring_id": "RING-074",
        "radius_m": 5.0,
        "member_count": 3,
        "suspect_count": 2,
        "abnormal_count": 1,
        "mean_ndre": 0.304,
        "mean_height_m": 4.9,
        "severity_score": 5.01,
        "priority": "Low",
        "zone": "Kuning"
      }
    },
    {
      "type": "Feature",
      "geometry": {
        "type": "Point",
        "coordinates": [
          109.23830174,
          -0.42559312
        ]
      },
      "properties": {
        "ring_id": "RING-073",
        "radius_m": 5.0,
        "member_count": 3,
        "suspect_count": 2,
        "abnormal_count": 1,
        "mean_ndre": 0.3233,
        "mean_height_m": 5.04,
        "severity_score": 4.817,
        "priority": "Low",
        "zone": "Kuning"
      }
    },
    {
      "type": "Feature",
      "geometry": {
        "type": "Point",
        "coordinates": [
          109.23785237,
          -0.42596077
        ]
      },
      "properties": {
        "ring_id": "RING-080",
        "radius_m": 5.0,
        "member_count": 3,
        "suspect_count": 2,
        "abnormal_count": 1,
        "mean_ndre": 0.34,
        "mean_height_m": 4.64,
        "severity_score": 4.65,
        "priority": "Low",
        "zone": "Kuning"
      }
    },
    {
      "type": "Feature",
      "geometry": {
        "type": "Point",
        "coordinates": [
          109.23829458,
          -0.42348866
        ]
      },
      "properties": {
        "ring_id": "RING-037",
        "radius_m": 5.0,
        "member_count": 3,
        "suspect_count": 2,
        "abnormal_count": 1,
        "mean_ndre": 0.3513,
        "mean_height_m": 5.74,
        "severity_score": 4.537,
        "priority": "Low",
        "zone": "Kuning"
      }
    },
    {
      "type": "Feature",
      "geometry": {
        "type": "Point",
        "coordinates": [
          109.23795997,
          -0.42482921
        ]
      },
      "properties": {
        "ring_id": "RING-052",
        "radius_m": 5.0,
        "member_count": 3,
        "suspect_count": 2,
        "abnormal_count": 1,
        "mean_ndre": 0.3537,
        "mean_height_m": 6.17,
        "severity_score": 4.513,
        "priority": "Low",
        "zone": "Kuning"
      }
    },
    {
      "type": "Feature",
      "geometry": {
        "type": "Point",
        "coordinates": [
          109.23586158,
          -0.43021866
        ]
      },
      "properties": {
        "ring_id": "RING-059",
        "radius_m": 5.0,
        "member_count": 3,
        "suspect_count": 1,
        "abnormal_count": 2,
        "mean_ndre": 0.2837,
        "mean_height_m": 3.56,
        "severity_score": 4.463,
        "priority": "Low",
        "zone": "Kuning"
      }
    },
    {
      "type": "Feature",
      "geometry": {
        "type": "Point",
        "coordinates": [
          109.23673308,
          -0.42681538
        ]
      },
      "properties": {
        "ring_id": "RING-083",
        "radius_m": 5.0,
        "member_count": 3,
        "suspect_count": 2,
        "abnormal_count": 1,
        "mean_ndre": 0.36,
        "mean_height_m": 4.8,
        "severity_score": 4.45,
        "priority": "Low",
        "zone": "Kuning"
      }
    },
    {
      "type": "Feature",
      "geometry": {
        "type": "Point",
        "coordinates": [
          109.23826172,
          -0.42578769
        ]
      },
      "properties": {
        "ring_id": "RING-087",
        "radius_m": 5.0,
        "member_count": 3,
        "suspect_count": 1,
        "abnormal_count": 2,
        "mean_ndre": 0.2923,
        "mean_height_m": 2.99,
        "severity_score": 4.377,
        "priority": "Low",
        "zone": "Kuning"
      }
    },
    {
      "type": "Feature",
      "geometry": {
        "type": "Point",
        "coordinates": [
          109.23802379,
          -0.42662863
        ]
      },
      "properties": {
        "ring_id": "RING-086",
        "radius_m": 5.0,
        "member_count": 3,
        "suspect_count": 2,
        "abnormal_count": 1,
        "mean_ndre": 0.375,
        "mean_height_m": 4.06,
        "severity_score": 4.3,
        "priority": "Low",
        "zone": "Kuning"
      }
    },
    {
      "type": "Feature",
      "geometry": {
        "type": "Point",
        "coordinates": [
          109.23637157,
          -0.42858847
        ]
      },
      "properties": {
        "ring_id": "RING-043",
        "radius_m": 5.0,
        "member_count": 3,
        "suspect_count": 2,
        "abnormal_count": 1,
        "mean_ndre": 0.376,
        "mean_height_m": 5.83,
        "severity_score": 4.29,
        "priority": "Low",
        "zone": "Kuning"
      }
    },
    {
      "type": "Feature",
      "geometry": {
        "type": "Point",
        "coordinates": [
          109.23829912,
          -0.4279122
        ]
      },
      "properties": {
        "ring_id": "RING-068",
        "radius_m": 5.0,
        "member_count": 3,
        "suspect_count": 1,
        "abnormal_count": 2,
        "mean_ndre": 0.3227,
        "mean_height_m": 3.92,
        "severity_score": 4.073,
        "priority": "Low",
        "zone": "Kuning"
      }
    },
    {
      "type": "Feature",
      "geometry": {
        "type": "Point",
        "coordinates": [
          109.2361338,
          -0.42609979
        ]
      },
      "properties": {
        "ring_id": "RING-085",
        "radius_m": 5.0,
        "member_count": 3,
        "suspect_count": 1,
        "abnormal_count": 2,
        "mean_ndre": 0.4233,
        "mean_height_m": 3.62,
        "severity_score": 3.3,
        "priority": "Low",
        "zone": "Kuning"
      }
    }
  ],
  "metadata": {
    "source": "E:\\ARENA_PILOT\\CINCIN_API\\D003A\\D003A_relative_cincin_api.csv",
    "total_rings": 90,
    "generated_by": "cincin_api.export_cincin_api_geojson"
  }
}