{
  "type": "FeatureCollection",
  "features": [
    {
      "type": "Feature",
      "geometry": {
        "type": "Point",
        "coordinates": [
          109.24050772,
          -0.42433414
        ]
      },
      "properties": {
        "ring_id": "RING-015",
        "radius_m": 5.0,
        "member_count": 11,
        "suspect_count": 9,
        "abnormal_count": 2,
        "mean_ndre": 0.329,
        "mean_height_m": 7.54,
        "severity_score": 16.81,
        "priority": "High",
        "zone": "Merah"
      }
    },
    {
      "type": "Feature",
      "geometry": {
        "type": "Point",
        "coordinates": [
          109.24041751,
          -0.42291484
        ]
      },
      "properties": {
        "ring_id": "RING-024",
        "radius_m": 5.0,
        "member_count": 12,
        "suspect_count": 6,
        "abnormal_count": 6,
        "mean_ndre": 0.3899,
        "mean_height_m": 6.34,
        "severity_score": 14.801,
        "priority": "High",
        "zone": "Merah"
      }
    },
    {
      "type": "Feature",
      "geometry": {
        "type": "Point",
        "coordinates": [
          109.23987494,
          -0.42392854
        ]
      },
      "properties": {
        "ring_id": "RING-048",
        "radius_m": 5.0,
        "member_count": 11,
        "suspect_count": 7,
        "abnormal_count": 4,
        "mean_ndre": 0.3844,
        "mean_height_m": 3.89,
        "severity_score": 14.756,
        "priority": "High",
        "zone": "Merah"
      }
    },
    {
      "type": "Feature",
      "geometry": {
        "type": "Point",
        "coordinates": [
          109.23989411,
          -0.42345853
        ]
      },
      "properties": {
        "ring_id": "RING-037",
        "radius_m": 5.0,
        "member_count": 10,
        "suspect_count": 4,
        "abnormal_count": 6,
        "mean_ndre": 0.3846,
        "mean_height_m": 5.4,
        "severity_score": 11.654,
        "priority": "Medium",
        "zone": "Oranye"
      }
    },
    {
      "type": "Feature",
      "geometry": {
        "type": "Point",
        "coordinates": [
          109.24006116,
          -0.42300008
        ]
      },
      "properties": {
        "ring_id": "RING-028",
        "radius_m": 5.0,
        "member_count": 10,
        "suspect_count": 2,
        "abnormal_count": 8,
        "mean_ndre": 0.3964,
        "mean_height_m": 6.8,
        "severity_score": 10.036,
        "priority": "Medium",
        "zone": "Oranye"
      }
    },
    {
      "type": "Feature",
      "geometry": {
        "type": "Point",
        "coordinates": [
          109.23963475,
          -0.4231174
        ]
      },
      "properties": {
        "ring_id": "RING-029",
        "radius_m": 5.0,
        "member_count": 8,
        "suspect_count": 3,
        "abnormal_count": 5,
        "mean_ndre": 0.3875,
        "mean_height_m": 6.31,
        "severity_score": 9.175,
        "priority": "Medium",
        "zone": "Oranye"
      }
    },
    {
      "type": "Feature",
      "geometry": {
        "type": "Point",
        "coordinates": [
          109.23980379,
          -0.42433438
        ]
      },
      "properties": {
        "ring_id": "RING-035",
        "radius_m": 5.0,
        "member_count": 6,
        "suspect_count": 4,
        "abnormal_count": 2,
        "mean_ndre": 0.375,
        "mean_height_m": 6.02,
        "severity_score": 8.35,
        "priority": "Medium",
        "zone": "Oranye"
      }
    },
    {
      "type": "Feature",
      "geometry": {
        "type": "Point",
        "coordinates": [
          109.24057151,
          -0.43091975
        ]
      },
      "properties": {
        "ring_id": "RING-003",
        "radius_m": 5.0,
        "member_count": 6,
        "suspect_count": 3,
        "abnormal_count": 3,
        "mean_ndre": 0.3574,
        "mean_height_m": 14.39,
        "severity_score": 7.776,
        "priority": "Medium",
        "zone": "Oranye"
      }
    },
    {
      "type": "Feature",
      "geometry": {
        "type": "Point",
        "coordinates": [
          109.23955743,
          -0.42665966
        ]
      },
      "properties": {
        "ring_id": "RING-044",
        "radius_m": 5.0,
        "member_count": 6,
        "suspect_count": 3,
        "abnormal_count": 3,
        "mean_ndre": 0.4024,
        "mean_height_m": 4.77,
        "severity_score": 7.35,
        "priority": "Medium",
        "zone": "Oranye"
      }
    },
    {
      "type": "Feature",
      "geometry": {
        "type": "Point",
        "coordinates": [
          109.23921605,
          -0.422875
        ]
      },
      "properties": {
        "ring_id": "RING-020",
        "radius_m": 5.0,
        "member_count": 5,
        "suspect_count": 3,
        "abnormal_count": 2,
        "mean_ndre": 0.3897,
        "mean_height_m": 8.48,
        "severity_score": 6.603,
        "priority": "Low",
        "zone": "Kuning"
      }
    },
    {
      "type": "Feature",
      "geometry": {
        "type": "Point",
        "coordinates": [
          109.23881431,
          -0.43119629
        ]
      },
      "properties": {
        "ring_id": "RING-018",
        "radius_m": 5.0,
        "member_count": 4,
        "suspect_count": 3,
        "abnormal_count": 1,
        "mean_ndre": 0.314,
        "mean_height_m": 9.11,
        "severity_score": 6.51,
        "priority": "Low",
        "zone": "Kuning"
      }
    },
    {
      "type": "Feature",
      "geometry": {
        "type": "Point",
        "coordinates": [
          109.24028103,
          -0.42329747
        ]
      },
      "properties": {
        "ring_id": "RING-022",
        "radius_m": 5.0,
        "member_count": 5,
        "suspect_count": 2,
        "abnormal_count": 3,
        "mean_ndre": 0.3724,
        "mean_height_m": 6.11,
        "severity_score": 6.026,
        "priority": "Low",
        "zone": "Kuning"
      }
    },
    {
      "type": "Feature",
      "geometry": {
        "type": "Point",
        "coordinates": [
          109.23923962,
          -0.42356929
        ]
      },
      "properties": {
        "ring_id": "RING-040",
        "radius_m": 5.0,
        "member_count": 6,
        "suspect_count": 1,
        "abnormal_count": 5,
        "mean_ndre": 0.3891,
        "mean_height_m": 4.79,
        "severity_score": 5.959,
        "priority": "Low",
        "zone": "Kuning"
      }
    },
    {
      "type": "Feature",
      "geometry": {
        "type": "Point",
        "coordinates": [
          109.23937024,
          -0.42502212
        ]
      },
      "properties": {
        "ring_id": "RING-012",
        "radius_m": 5.0,
        "member_count": 5,
        "suspect_count": 2,
        "abnormal_count": 3,
        "mean_ndre": 0.3901,
        "mean_height_m": 8.25,
        "severity_score": 5.849,
        "priority": "Low",
        "zone": "Kuning"
      }
    },
    {
      "type": "Feature",
      "geometry": {
        "type": "Point",
        "coordinates": [
          109.23913702,
          -0.42315423
        ]
      },
      "properties": {
        "ring_id": "RING-030",
        "radius_m": 5.0,
        "member_count": 5,
        "suspect_count": 2,
        "abnormal_count": 3,
        "mean_ndre": 0.3956,
        "mean_height_m": 5.6,
        "severity_score": 5.794,
        "priority": "Low",
        "zone": "Kuning"
      }
    },
    {
      "type": "Feature",
      "geometry": {
        "type": "Point",
        "coordinates": [
          109.23946367,
          -0.43014824
        ]
      },
      "properties": {
        "ring_id": "RING-007",
        "radius_m": 5.0,
        "member_count": 4,
        "suspect_count": 3,
        "abnormal_count": 1,
        "mean_ndre": 0.3937,
        "mean_height_m": 11.83,
        "severity_score": 5.713,
        "priority": "Low",
        "zone": "Kuning"
      }
    },
    {
      "type": "Feature",
      "geometry": {
        "type": "Point",
        "coordinates": [
          109.2405734,
          -0.42657315
        ]
      },
      "properties": {
        "ring_id": "RING-019",
        "radius_m": 5.0,
        "member_count": 3,
        "suspect_count": 3,
        "abnormal_count": 0,
        "mean_ndre": 0.3402,
        "mean_height_m": 6.5,
        "severity_score": 5.398,
        "priority": "Low",
        "zone": "Kuning"
      }
    },
    {
      "type": "Feature",
      "geometry": {
        "type": "Point",
        "coordinates": [
          109.23986393,
          -0.42926981
        ]
      },
      "properties": {
        "ring_id": "RING-011",
        "radius_m": 5.0,
        "member_count": 4,
        "suspect_count": 2,
        "abnormal_count": 2,
        "mean_ndre": 0.3781,
        "mean_height_m": 12.11,
        "severity_score": 5.119,
        "priority": "Low",
        "zone": "Kuning"
      }
    },
    {
      "type": "Feature",
      "geometry": {
        "type": "Point",
        "coordinates": [
          109.239922,
          -0.43052194
        ]
      },
      "properties": {
        "ring_id": "RING-001",
        "radius_m": 5.0,
        "member_count": 3,
        "suspect_count": 3,
        "abnormal_count": 0,
        "mean_ndre": 0.3703,
        "mean_height_m": 17.79,
        "severity_score": 5.097,
        "priority": "Low",
        "zone": "Kuning"
      }
    },
    {
      "type": "Feature",
      "geometry": {
        "type": "Point",
        "coordinates": [
          109.23912614,
          -0.42670244
        ]
      },
      "properties": {
        "ring_id": "RING-053",
        "radius_m": 5.0,
        "member_count": 4,
        "suspect_count": 2,
        "abnormal_count": 2,
        "mean_ndre": 0.3806,
        "mean_height_m": 3.89,
        "severity_score": 5.094,
        "priority": "Low",
        "zone": "Kuning"
      }
    },
    {
      "type": "Feature",
      "geometry": {
        "type": "Point",
        "coordinates": [
          109.23980699,
          -0.42489117
        ]
      },
      "properties": {
        "ring_id": "RING-023",
        "radius_m": 5.0,
        "member_count": 4,
        "suspect_count": 2,
        "abnormal_count": 2,
        "mean_ndre": 0.3816,
        "mean_height_m": 6.51,
        "severity_score": 5.084,
        "priority": "Low",
        "zone": "Kuning"
      }
    },
    {
      "type": "Feature",
      "geometry": {
        "type": "Point",
        "coordinates": [
          109.2389504,
          -0.42477375
        ]
      },
      "properties": {
        "ring_id": "RING-039",
        "radius_m": 5.0,
        "member_count": 4,
        "suspect_count": 2,
        "abnormal_count": 2,
        "mean_ndre": 0.3833,
        "mean_height_m": 5.92,
        "severity_score": 5.067,
        "priority": "Low",
        "zone": "Kuning"
      }
    },
    {
      "type": "Feature",
      "geometry": {
        "type": "Point",
        "coordinates": [
          109.24026547,
          -0.42528069
        ]
      },
      "properties": {
        "ring_id": "RING-051",
        "radius_m": 5.0,
        "member_count": 4,
        "suspect_count": 2,
        "abnormal_count": 2,
        "mean_ndre": 0.3837,
        "mean_height_m": 4.26,
        "severity_score": 5.063,
        "priority": "Low",
        "zone": "Kuning"
      }
    },
    {
      "type": "Feature",
      "geometry": {
        "type": "Point",
        "coordinates": [
          109.23981865,
          -0.42279376
        ]
      },
      "properties": {
        "ring_id": "RING-033",
        "radius_m": 5.0,
        "member_count": 3,
        "suspect_count": 3,
        "abnormal_count": 0,
        "mean_ndre": 0.3765,
        "mean_height_m": 7.24,
        "severity_score": 5.035,
        "priority": "Low",
        "zone": "Kuning"
      }
    },
    {
      "type": "Feature",
      "geometry": {
        "type": "Point",
        "coordinates": [
          109.24015983,
          -0.4242328
        ]
      },
      "properties": {
        "ring_id": "RING-027",
        "radius_m": 5.0,
        "member_count": 4,
        "suspect_count": 2,
        "abnormal_count": 2,
        "mean_ndre": 0.3912,
        "mean_height_m": 6.95,
        "severity_score": 4.988,
        "priority": "Low",
        "zone": "Kuning"
      }
    },
    {
      "type": "Feature",
      "geometry": {
        "type": "Point",
        "coordinates": [
          109.2385026,
          -0.4302614
        ]
      },
      "properties": {
        "ring_id": "RING-008",
        "radius_m": 5.0,
        "member_count": 4,
        "suspect_count": 2,
        "abnormal_count": 2,
        "mean_ndre": 0.3931,
        "mean_height_m": 11.83,
        "severity_score": 4.969,
        "priority": "Low",
        "zone": "Kuning"
      }
    },
    {
      "type": "Feature",
      "geometry": {
        "type": "Point",
        "coordinates": [
          109.23989433,
          -0.43086149
        ]
      },
      "properties": {
        "ring_id": "RING-002",
        "radius_m": 5.0,
        "member_count": 4,
        "suspect_count": 2,
        "abnormal_count": 2,
        "mean_ndre": 0.3972,
        "mean_height_m": 19.13,
        "severity_score": 4.928,
        "priority": "Low",
        "zone": "Kuning"
      }
    },
    {
      "type": "Feature",
      "geometry": {
        "type": "Point",
        "coordinates": [
          109.23879994,
          -0.42328173
        ]
      },
      "properties": {
        "ring_id": "RING-055",
        "radius_m": 5.0,
        "member_count": 4,
        "suspect_count": 2,
        "abnormal_count": 2,
        "mean_ndre": 0.3972,
        "mean_height_m": 3.79,
        "severity_score": 4.928,
        "priority": "Low",
        "zone": "Kuning"
      }
    },
    {
      "type": "Feature",
      "geometry": {
        "type": "Point",
        "coordinates": [
          109.23951178,
          -0.4226609
        ]
      },
      "properties": {
        "ring_id": "RING-038",
        "radius_m": 5.0,
        "member_count": 3,
        "suspect_count": 2,
        "abnormal_count": 1,
        "mean_ndre": 0.3754,
        "mean_height_m": 6.38,
        "severity_score": 4.296,
        "priority": "Low",
        "zone": "Kuning"
      }
    },
    {
      "type": "Feature",
      "geometry": {
        "type": "Point",
        "coordinates": [
          109.23938025,
          -0.4236871
        ]
      },
      "properties": {
        "ring_id": "RING-047",
        "radius_m": 5.0,
        "member_count": 3,
        "suspect_count": 2,
        "abnormal_count": 1,
        "mean_ndre": 0.3783,
        "mean_height_m": 4.73,
        "severity_score": 4.267,
        "priority": "Low",
        "zone": "Kuning"
      }
    },
    {
      "type": "Feature",
      "geometry": {
        "type": "Point",
        "coordinates": [
          109.23946131,
          -0.42470039
        ]
      },
      "properties": {
        "ring_id": "RING-021",
        "radius_m": 5.0,
        "member_count": 4,
        "suspect_count": 1,
        "abnormal_count": 3,
        "mean_ndre": 0.3928,
        "mean_height_m": 8.22,
        "severity_score": 4.222,
        "priority": "Low",
        "zone": "Kuning"
      }
    },
    {
      "type": "Feature",
      "geometry": {
        "type": "Point",
        "coordinates": [
          109.23988171,
          -0.42663728
        ]
      },
      "properties": {
        "ring_id": "RING-032",
        "radius_m": 5.0,
        "member_count": 4,
        "suspect_count": 1,
        "abnormal_count": 3,
        "mean_ndre": 0.3996,
        "mean_height_m": 6.87,
        "severity_score": 4.154,
        "priority": "Low",
        "zone": "Kuning"
      }
    },
    {
      "type": "Feature",
      "geometry": {
        "type": "Point",
        "coordinates": [
          109.23941214,
          -0.42617168
        ]
      },
      "properties": {
        "ring_id": "RING-034",
        "radius_m": 5.0,
        "member_count": 4,
        "suspect_count": 1,
        "abnormal_count": 3,
        "mean_ndre": 0.4018,
        "mean_height_m": 6.67,
        "severity_score": 4.15,
        "priority": "Low",
        "zone": "Kuning"
      }
    },
    {
      "type": "Feature",
      "geometry": {
        "type": "Point",
        "coordinates": [
          109.23948152,
          -0.42405563
        ]
      },
      "properties": {
        "ring_id": "RING-049",
        "radius_m": 5.0,
        "member_count": 3,
        "suspect_count": 2,
        "abnormal_count": 1,
        "mean_ndre": 0.393,
        "mean_height_m": 4.4,
        "severity_score": 4.12,
        "priority": "Low",
        "zone": "Kuning"
      }
    },
    {
      "type": "Feature",
      "geometry": {
        "type": "Point",
        "coordinates": [
          109.24055801,
          -0.4290434
        ]
      },
      "properties": {
        "ring_id": "RING-005",
        "radius_m": 5.0,
        "member_count": 3,
        "suspect_count": 1,
        "abnormal_count": 2,
        "mean_ndre": 0.3777,
        "mean_height_m": 11.82,
        "severity_score": 3.523,
        "priority": "Low",
        "zone": "Kuning"
      }
    },
    {
      "type": "Feature",
      "geometry": {
        "type": "Point",
        "coordinates": [
          109.24019913,
          -0.42617254
        ]
      },
      "properties": {
        "ring_id": "RING-054",
        "radius_m": 5.0,
        "member_count": 4,
        "suspect_count": 0,
        "abnormal_count": 4,
        "mean_ndre": 0.4133,
        "mean_height_m": 3.87,
        "severity_score": 3.4,
        "priority": "Low",
        "zone": "Kuning"
      }
    },
    {
      "type": "Feature",
      "geometry": {
        "type": "Point",
        "coordinates": [
          109.23938895,
          -0.42560498
        ]
      },
      "properties": {
        "ring_id": "RING-009",
        "radius_m": 5.0,
        "member_count": 3,
        "suspect_count": 1,
        "abnormal_count": 2,
        "mean_ndre": 0.3936,
        "mean_height_m": 8.81,
        "severity_score": 3.364,
        "priority": "Low",
        "zone": "Kuning"
      }
    },
    {
      "type": "Feature",
      "geometry": {
        "type": "Point",
        "coordinates": [
          109.24027178,
          -0.4309389
        ]
      },
      "properties": {
        "ring_id": "RING-013",
        "radius_m": 5.0,
        "member_count": 3,
        "suspect_count": 1,
        "abnormal_count": 2,
        "mean_ndre": 0.3948,
        "mean_height_m": 9.89,
        "severity_score": 3.352,
        "priority": "Low",
        "zone": "Kuning"
      }
    },
    {
      "type": "Feature",
      "geometry": {
        "type": "Point",
        "coordinates": [
          109.23890792,
          -0.42628339
        ]
      },
      "properties": {
        "ring_id": "RING-050",
        "radius_m": 5.0,
        "member_count": 3,
        "suspect_count": 1,
        "abnormal_count": 2,
        "mean_ndre": 0.3951,
        "mean_height_m": 4.58,
        "severity_score": 3.349,
        "priority": "Low",
        "zone": "Kuning"
      }
    },
    {
      "type": "Feature",
      "geometry": {
        "type": "Point",
        "coordinates": [
          109.23976139,
          -0.42709279
        ]
      },
      "properties": {
        "ring_id": "RING-043",
        "radius_m": 5.0,
        "member_count": 3,
        "suspect_count": 1,
        "abnormal_count": 2,
        "mean_ndre": 0.3964,
        "mean_height_m": 4.83,
        "severity_score": 3.336,
        "priority": "Low",
        "zone": "Kuning"
      }
    },
    {
      "type": "Feature",
      "geometry": {
        "type": "Point",
        "coordinates": [
          109.2388537,
          -0.4237423
        ]
      },
      "properties": {
        "ring_id": "RING-052",
        "radius_m": 5.0,
        "member_count": 3,
        "suspect_count": 1,
        "abnormal_count": 2,
        "mean_ndre": 0.3981,
        "mean_height_m": 4.27,
        "severity_score": 3.319,
        "priority": "Low",
        "zone": "Kuning"
      }
    },
    {
      "type": "Feature",
      "geometry": {
        "type": "Point",
        "coordinates": [
          109.23877131,
          -0.42262758
        ]
      },
      "properties": {
        "ring_id": "RING-042",
        "radius_m": 5.0,
        "member_count": 3,
        "suspect_count": 1,
        "abnormal_count": 2,
        "mean_ndre": 0.3984,
        "mean_height_m": 6.04,
        "severity_score": 3.316,
        "priority": "Low",
        "zone": "Kuning"
      }
    },
    {
      "type": "Feature",
      "geometry": {
        "type": "Point",
        "coordinates": [
          109.24020487,
          -0.42561512
        ]
      },
      "properties": {
        "ring_id": "RING-045",
        "radius_m": 5.0,
        "member_count": 3,
        "suspect_count": 1,
        "abnormal_count": 2,
        "mean_ndre": 0.3986,
        "mean_height_m": 5.35,
        "severity_score": 3.314,
        "priority": "Low",
        "zone": "Kuning"
      }
    },
    {
      "type": "Feature",
      "geometry": {
        "type": "Point",
        "coordinates": [
          109.23941577,
          -0.43073614
        ]
      },
      "properties": {
        "ring_id": "RING-004",
        "radius_m": 5.0,
        "member_count": 3,
        "suspect_count": 1,
        "abnormal_count": 2,
        "mean_ndre": 0.3991,
        "mean_height_m": 7.74,
        "severity_score": 3.309,
        "priority": "Low",
        "zone": "Kuning"
      }
    },
    {
      "type": "Feature",
      "geometry": {
        "type": "Point",
        "coordinates": [
          109.23890957,
          -0.42293492
        ]
      },
      "properties": {
        "ring_id": "RING-014",
        "radius_m": 5.0,
        "member_count": 3,
        "suspect_count": 1,
        "abnormal_count": 2,
        "mean_ndre": 0.4038,
        "mean_height_m": 8.21,
        "severity_score": 3.3,
        "priority": "Low",
        "zone": "Kuning"
      }
    },
    {
      "type": "Feature",
      "geometry": {
        "type": "Point",
        "coordinates": [
          109.24025452,
          -0.43047514
        ]
      },
      "properties": {
        "ring_id": "RING-010",
        "radius_m": 5.0,
        "member_count": 3,
        "suspect_count": 1,
        "abnormal_count": 2,
        "mean_ndre": 0.4111,
        "mean_height_m": 10.92,
        "severity_score": 3.3,
        "priority": "Low",
        "zone": "Kuning"
      }
    },
    {
      "type": "Feature",
      "geometry": {
        "type": "Point",
        "coordinates": [
          109.23893286,
          -0.4278397
        ]
      },
      "properties": {
        "ring_id": "RING-017",
        "radius_m": 5.0,
        "member_count": 3,
        "suspect_count": 1,
        "abnormal_count": 2,
        "mean_ndre": 0.4043,
        "mean_height_m": 9.77,
        "severity_score": 3.3,
        "priority": "Low",
        "zone": "Kuning"
      }
    },
    {
      "type": "Feature",
      "geometry": {
        "type": "Point",
        "coordinates": [
          109.23876271,
          -0.42359081
        ]
      },
      "properties": {
        "ring_id": "RING-046",
        "radius_m": 5.0,
        "member_count": 3,
        "suspect_count": 1,
        "abnormal_count": 2,
        "mean_ndre": 0.403,
        "mean_height_m": 4.99,
        "severity_score": 3.3,
        "priority": "Low",
        "zone": "Kuning"
      }
    },
    {
      "type": "Feature",
      "geometry": {
        "type": "Point",
        "coordinates": [
          109.24005665,
          -0.4269432
        ]
      },
      "properties": {
        "ring_id": "RING-041",
        "radius_m": 5.0,
        "member_count": 3,
        "suspect_count": 0,
        "abnormal_count": 3,
        "mean_ndre": 0.3985,
        "mean_height_m": 5.79,
        "severity_score": 2.565,
        "priority": "Low",
        "zone": "Kuning"
      }
    },
    {
      "type": "Feature",
      "geometry": {
        "type": "Point",
        "coordinates": [
          109.23985479,
          -0.42979713
        ]
      },
      "properties": {
        "ring_id": "RING-016",
        "radius_m": 5.0,
        "member_count": 3,
        "suspect_count": 0,
        "abnormal_count": 3,
        "mean_ndre": 0.4205,
        "mean_height_m": 7.78,
        "severity_score": 2.55,
        "priority": "Low",
        "zone": "Kuning"
      }
    },
    {
      "type": "Feature",
      "geometry": {
        "type": "Point",
        "coordinates": [
          109.23867011,
          -0.42985126
        ]
      },
      "properties": {
        "ring_id": "RING-006",
        "radius_m": 5.0,
        "member_count": 3,
        "suspect_count": 0,
        "abnormal_count": 3,
        "mean_ndre": 0.4133,
        "mean_height_m": 9.75,
        "severity_score": 2.55,
        "priority": "Low",
        "zone": "Kuning"
      }
    },
    {
      "type": "Feature",
      "geometry": {
        "type": "Point",
        "coordinates": [
          109.23925934,
          -0.42540314
        ]
      },
      "properties": {
        "ring_id": "RING-036",
        "radius_m": 5.0,
        "member_count": 3,
        "suspect_count": 0,
        "abnormal_count": 3,
        "mean_ndre": 0.4071,
        "mean_height_m": 5.54,
        "severity_score": 2.55,
        "priority": "Low",
        "zone": "Kuning"
      }
    },
    {
      "type": "Feature",
      "geometry": {
        "type": "Point",
        "coordinates": [
          109.23851914,
          -0.42749055
        ]
      },
      "properties": {
        "ring_id": "RING-025",
        "radius_m": 5.0,
        "member_count": 3,
        "suspect_count": 0,
        "abnormal_count": 3,
        "mean_ndre": 0.4129,
        "mean_height_m": 6.5,
        "severity_score": 2.55,
        "priority": "Low",
        "zone": "Kuning"
      }
    },
    {
      "type": "Feature",
      "geometry": {
        "type": "Point",
        "coordinates": [
          109.23899878,
          -0.42827273
        ]
      },
      "properties": {
        "ring_id": "RING-026",
        "radius_m": 5.0,
        "member_count": 3,
        "suspect_count": 0,
        "abnormal_count": 3,
        "mean_ndre": 0.4105,
        "mean_height_m": 6.5,
        "severity_score": 2.55,
        "priority": "Low",
        "zone": "Kuning"
      }
    },
    {
      "type": "Feature",
      "geometry": {
        "type": "Point",
        "coordinates": [
          109.23913964,
          -0.42575895
        ]
      },
      "properties": {
        "ring_id": "RING-031",
        "radius_m": 5.0,
        "member_count": 3,
        "suspect_count": 0,
        "abnormal_count": 3,
        "mean_ndre": 0.4048,
        "mean_height_m": 5.61,
        "severity_score": 2.55,
        "priority": "Low",
        "zone": "Kuning"
      }
    }
  ],
  "metadata": {
    "source": "E:\\ARENA_PILOT\\CINCIN_API\\D004A\\D004A_absolute_cincin_api.csv",
    "total_rings": 55,
    "generated_by": "cincin_api.export_cincin_api_geojson"
  }
}