{
  "type": "FeatureCollection",
  "features": [
    {
      "type": "Feature",
      "geometry": {
        "type": "Point",
        "coordinates": [
          109.23559151,
          -0.42668421
        ]
      },
      "properties": {
        "ring_id": "RING-003",
        "radius_m": 5.0,
        "member_count": 9,
        "suspect_count": 3,
        "abnormal_count": 6,
        "mean_ndre": 0.4097,
        "mean_height_m": 5.07,
        "severity_score": 9.9,
        "priority": "Medium",
        "zone": "Oranye"
      }
    },
    {
      "type": "Feature",
      "geometry": {
        "type": "Point",
        "coordinates": [
          109.23526869,
          -0.42904259
        ]
      },
      "properties": {
        "ring_id": "RING-005",
        "radius_m": 5.0,
        "member_count": 8,
        "suspect_count": 3,
        "abnormal_count": 5,
        "mean_ndre": 0.3988,
        "mean_height_m": 8.17,
        "severity_score": 9.062,
        "priority": "Medium",
        "zone": "Oranye"
      }
    },
    {
      "type": "Feature",
      "geometry": {
        "type": "Point",
        "coordinates": [
          109.23407824,
          -0.42431568
        ]
      },
      "properties": {
        "ring_id": "RING-019",
        "radius_m": 5.0,
        "member_count": 6,
        "suspect_count": 4,
        "abnormal_count": 2,
        "mean_ndre": 0.3901,
        "mean_height_m": 5.98,
        "severity_score": 8.199,
        "priority": "Medium",
        "zone": "Oranye"
      }
    },
    {
      "type": "Feature",
      "geometry": {
        "type": "Point",
        "coordinates": [
          109.23397543,
          -0.42575406
        ]
      },
      "properties": {
        "ring_id": "RING-043",
        "radius_m": 5.0,
        "member_count": 7,
        "suspect_count": 2,
        "abnormal_count": 5,
        "mean_ndre": 0.3995,
        "mean_height_m": 4.74,
        "severity_score": 7.455,
        "priority": "Medium",
        "zone": "Oranye"
      }
    },
    {
      "type": "Feature",
      "geometry": {
        "type": "Point",
        "coordinates": [
          109.23470003,
          -0.42444129
        ]
      },
      "properties": {
        "ring_id": "RING-031",
        "radius_m": 5.0,
        "member_count": 6,
        "suspect_count": 3,
        "abnormal_count": 3,
        "mean_ndre": 0.3971,
        "mean_height_m": 4.85,
        "severity_score": 7.379,
        "priority": "Medium",
        "zone": "Oranye"
      }
    },
    {
      "type": "Feature",
      "geometry": {
        "type": "Point",
        "coordinates": [
          109.23527573,
          -0.42287367
        ]
      },
      "properties": {
        "ring_id": "RING-032",
        "radius_m": 5.0,
        "member_count": 6,
        "suspect_count": 1,
        "abnormal_count": 5,
        "mean_ndre": 0.3979,
        "mean_height_m": 4.99,
        "severity_score": 5.871,
        "priority": "Low",
        "zone": "Kuning"
      }
    },
    {
      "type": "Feature",
      "geometry": {
        "type": "Point",
        "coordinates": [
          109.2350513,
          -0.42736376
        ]
      },
      "properties": {
        "ring_id": "RING-056",
        "radius_m": 5.0,
        "member_count": 4,
        "suspect_count": 3,
        "abnormal_count": 1,
        "mean_ndre": 0.3786,
        "mean_height_m": 3.91,
        "severity_score": 5.864,
        "priority": "Low",
        "zone": "Kuning"
      }
    },
    {
      "type": "Feature",
      "geometry": {
        "type": "Point",
        "coordinates": [
          109.23377331,
          -0.42839135
        ]
      },
      "properties": {
        "ring_id": "RING-014",
        "radius_m": 5.0,
        "member_count": 6,
        "suspect_count": 1,
        "abnormal_count": 5,
        "mean_ndre": 0.4058,
        "mean_height_m": 8.09,
        "severity_score": 5.85,
        "priority": "Low",
        "zone": "Kuning"
      }
    },
    {
      "type": "Feature",
      "geometry": {
        "type": "Point",
        "coordinates": [
          109.23493546,
          -0.42523015
        ]
      },
      "properties": {
        "ring_id": "RING-028",
        "radius_m": 5.0,
        "member_count": 4,
        "suspect_count": 3,
        "abnormal_count": 1,
        "mean_ndre": 0.3852,
        "mean_height_m": 5.33,
        "severity_score": 5.798,
        "priority": "Low",
        "zone": "Kuning"
      }
    },
    {
      "type": "Feature",
      "geometry": {
        "type": "Point",
        "coordinates": [
          109.23463666,
          -0.42690166
        ]
      },
      "properties": {
        "ring_id": "RING-021",
        "radius_m": 5.0,
        "member_count": 5,
        "suspect_count": 2,
        "abnormal_count": 3,
        "mean_ndre": 0.3987,
        "mean_height_m": 7.38,
        "severity_score": 5.763,
        "priority": "Low",
        "zone": "Kuning"
      }
    },
    {
      "type": "Feature",
      "geometry": {
        "type": "Point",
        "coordinates": [
          109.23460075,
          -0.42242203
        ]
      },
      "properties": {
        "ring_id": "RING-037",
        "radius_m": 5.0,
        "member_count": 5,
        "suspect_count": 1,
        "abnormal_count": 4,
        "mean_ndre": 0.3957,
        "mean_height_m": 5.48,
        "severity_score": 5.043,
        "priority": "Low",
        "zone": "Kuning"
      }
    },
    {
      "type": "Feature",
      "geometry": {
        "type": "Point",
        "coordinates": [
          109.23468314,
          -0.42826942
        ]
      },
      "properties": {
        "ring_id": "RING-033",
        "radius_m": 5.0,
        "member_count": 5,
        "suspect_count": 1,
        "abnormal_count": 4,
        "mean_ndre": 0.403,
        "mean_height_m": 5.8,
        "severity_score": 5.0,
        "priority": "Low",
        "zone": "Kuning"
      }
    },
    {
      "type": "Feature",
      "geometry": {
        "type": "Point",
        "coordinates": [
          109.23401319,
          -0.42678115
        ]
      },
      "properties": {
        "ring_id": "RING-050",
        "radius_m": 5.0,
        "member_count": 5,
        "suspect_count": 1,
        "abnormal_count": 4,
        "mean_ndre": 0.4075,
        "mean_height_m": 3.88,
        "severity_score": 5.0,
        "priority": "Low",
        "zone": "Kuning"
      }
    },
    {
      "type": "Feature",
      "geometry": {
        "type": "Point",
        "coordinates": [
          109.23430364,
          -0.42558694
        ]
      },
      "properties": {
        "ring_id": "RING-040",
        "radius_m": 5.0,
        "member_count": 3,
        "suspect_count": 3,
        "abnormal_count": 0,
        "mean_ndre": 0.382,
        "mean_height_m": 4.9,
        "severity_score": 4.98,
        "priority": "Low",
        "zone": "Kuning"
      }
    },
    {
      "type": "Feature",
      "geometry": {
        "type": "Point",
        "coordinates": [
          109.23528325,
          -0.42455133
        ]
      },
      "properties": {
        "ring_id": "RING-024",
        "radius_m": 5.0,
        "member_count": 4,
        "suspect_count": 2,
        "abnormal_count": 2,
        "mean_ndre": 0.3928,
        "mean_height_m": 6.59,
        "severity_score": 4.972,
        "priority": "Low",
        "zone": "Kuning"
      }
    },
    {
      "type": "Feature",
      "geometry": {
        "type": "Point",
        "coordinates": [
          109.2338211,
          -0.42648631
        ]
      },
      "properties": {
        "ring_id": "RING-057",
        "radius_m": 5.0,
        "member_count": 4,
        "suspect_count": 2,
        "abnormal_count": 2,
        "mean_ndre": 0.3989,
        "mean_height_m": 3.32,
        "severity_score": 4.911,
        "priority": "Low",
        "zone": "Kuning"
      }
    },
    {
      "type": "Feature",
      "geometry": {
        "type": "Point",
        "coordinates": [
          109.23443129,
          -0.42727714
        ]
      },
      "properties": {
        "ring_id": "RING-034",
        "radius_m": 5.0,
        "member_count": 4,
        "suspect_count": 2,
        "abnormal_count": 2,
        "mean_ndre": 0.4012,
        "mean_height_m": 5.9,
        "severity_score": 4.9,
        "priority": "Low",
        "zone": "Kuning"
      }
    },
    {
      "type": "Feature",
      "geometry": {
        "type": "Point",
        "coordinates": [
          109.23568077,
          -0.42523021
        ]
      },
      "properties": {
        "ring_id": "RING-058",
        "radius_m": 5.0,
        "member_count": 3,
        "suspect_count": 2,
        "abnormal_count": 1,
        "mean_ndre": 0.3517,
        "mean_height_m": 3.86,
        "severity_score": 4.533,
        "priority": "Low",
        "zone": "Kuning"
      }
    },
    {
      "type": "Feature",
      "geometry": {
        "type": "Point",
        "coordinates": [
          109.23411257,
          -0.42657861
        ]
      },
      "properties": {
        "ring_id": "RING-039",
        "radius_m": 5.0,
        "member_count": 4,
        "suspect_count": 1,
        "abnormal_count": 3,
        "mean_ndre": 0.3842,
        "mean_height_m": 4.74,
        "severity_score": 4.308,
        "priority": "Low",
        "zone": "Kuning"
      }
    },
    {
      "type": "Feature",
      "geometry": {
        "type": "Point",
        "coordinates": [
          109.23439749,
          -0.42680566
        ]
      },
      "properties": {
        "ring_id": "RING-030",
        "radius_m": 5.0,
        "member_count": 4,
        "suspect_count": 1,
        "abnormal_count": 3,
        "mean_ndre": 0.3857,
        "mean_height_m": 5.88,
        "severity_score": 4.293,
        "priority": "Low",
        "zone": "Kuning"
      }
    },
    {
      "type": "Feature",
      "geometry": {
        "type": "Point",
        "coordinates": [
          109.2344023,
          -0.42620144
        ]
      },
      "properties": {
        "ring_id": "RING-060",
        "radius_m": 5.0,
        "member_count": 3,
        "suspect_count": 2,
        "abnormal_count": 1,
        "mean_ndre": 0.3786,
        "mean_height_m": 3.31,
        "severity_score": 4.264,
        "priority": "Low",
        "zone": "Kuning"
      }
    },
    {
      "type": "Feature",
      "geometry": {
        "type": "Point",
        "coordinates": [
          109.23513281,
          -0.43102764
        ]
      },
      "properties": {
        "ring_id": "RING-001",
        "radius_m": 5.0,
        "member_count": 5,
        "suspect_count": 0,
        "abnormal_count": 5,
        "mean_ndre": 0.4093,
        "mean_height_m": 8.97,
        "severity_score": 4.25,
        "priority": "Low",
        "zone": "Kuning"
      }
    },
    {
      "type": "Feature",
      "geometry": {
        "type": "Point",
        "coordinates": [
          109.23559362,
          -0.4295002
        ]
      },
      "properties": {
        "ring_id": "RING-017",
        "radius_m": 5.0,
        "member_count": 5,
        "suspect_count": 0,
        "abnormal_count": 5,
        "mean_ndre": 0.4115,
        "mean_height_m": 6.66,
        "severity_score": 4.25,
        "priority": "Low",
        "zone": "Kuning"
      }
    },
    {
      "type": "Feature",
      "geometry": {
        "type": "Point",
        "coordinates": [
          109.23516801,
          -0.42719007
        ]
      },
      "properties": {
        "ring_id": "RING-029",
        "radius_m": 5.0,
        "member_count": 5,
        "suspect_count": 0,
        "abnormal_count": 5,
        "mean_ndre": 0.4168,
        "mean_height_m": 4.97,
        "severity_score": 4.25,
        "priority": "Low",
        "zone": "Kuning"
      }
    },
    {
      "type": "Feature",
      "geometry": {
        "type": "Point",
        "coordinates": [
          109.2338359,
          -0.42967577
        ]
      },
      "properties": {
        "ring_id": "RING-009",
        "radius_m": 5.0,
        "member_count": 3,
        "suspect_count": 2,
        "abnormal_count": 1,
        "mean_ndre": 0.3813,
        "mean_height_m": 9.35,
        "severity_score": 4.237,
        "priority": "Low",
        "zone": "Kuning"
      }
    },
    {
      "type": "Feature",
      "geometry": {
        "type": "Point",
        "coordinates": [
          109.23481789,
          -0.43083667
        ]
      },
      "properties": {
        "ring_id": "RING-010",
        "radius_m": 5.0,
        "member_count": 3,
        "suspect_count": 2,
        "abnormal_count": 1,
        "mean_ndre": 0.3833,
        "mean_height_m": 8.77,
        "severity_score": 4.217,
        "priority": "Low",
        "zone": "Kuning"
      }
    },
    {
      "type": "Feature",
      "geometry": {
        "type": "Point",
        "coordinates": [
          109.23414834,
          -0.42774034
        ]
      },
      "properties": {
        "ring_id": "RING-007",
        "radius_m": 5.0,
        "member_count": 3,
        "suspect_count": 2,
        "abnormal_count": 1,
        "mean_ndre": 0.3894,
        "mean_height_m": 8.71,
        "severity_score": 4.156,
        "priority": "Low",
        "zone": "Kuning"
      }
    },
    {
      "type": "Feature",
      "geometry": {
        "type": "Point",
        "coordinates": [
          109.23456951,
          -0.43072945
        ]
      },
      "properties": {
        "ring_id": "RING-008",
        "radius_m": 5.0,
        "member_count": 4,
        "suspect_count": 1,
        "abnormal_count": 3,
        "mean_ndre": 0.4056,
        "mean_height_m": 9.67,
        "severity_score": 4.15,
        "priority": "Low",
        "zone": "Kuning"
      }
    },
    {
      "type": "Feature",
      "geometry": {
        "type": "Point",
        "coordinates": [
          109.23567141,
          -0.42291927
        ]
      },
      "properties": {
        "ring_id": "RING-048",
        "radius_m": 5.0,
        "member_count": 3,
        "suspect_count": 2,
        "abnormal_count": 1,
        "mean_ndre": 0.3922,
        "mean_height_m": 4.2,
        "severity_score": 4.128,
        "priority": "Low",
        "zone": "Kuning"
      }
    },
    {
      "type": "Feature",
      "geometry": {
        "type": "Point",
        "coordinates": [
          109.2336515,
          -0.42355484
        ]
      },
      "properties": {
        "ring_id": "RING-004",
        "radius_m": 5.0,
        "member_count": 3,
        "suspect_count": 1,
        "abnormal_count": 2,
        "mean_ndre": 0.372,
        "mean_height_m": 9.73,
        "severity_score": 3.58,
        "priority": "Low",
        "zone": "Kuning"
      }
    },
    {
      "type": "Feature",
      "geometry": {
        "type": "Point",
        "coordinates": [
          109.23477799,
          -0.43053568
        ]
      },
      "properties": {
        "ring_id": "RING-011",
        "radius_m": 5.0,
        "member_count": 3,
        "suspect_count": 1,
        "abnormal_count": 2,
        "mean_ndre": 0.3845,
        "mean_height_m": 7.42,
        "severity_score": 3.455,
        "priority": "Low",
        "zone": "Kuning"
      }
    },
    {
      "type": "Feature",
      "geometry": {
        "type": "Point",
        "coordinates": [
          109.23501238,
          -0.43060894
        ]
      },
      "properties": {
        "ring_id": "RING-018",
        "radius_m": 5.0,
        "member_count": 4,
        "suspect_count": 0,
        "abnormal_count": 4,
        "mean_ndre": 0.4159,
        "mean_height_m": 7.27,
        "severity_score": 3.4,
        "priority": "Low",
        "zone": "Kuning"
      }
    },
    {
      "type": "Feature",
      "geometry": {
        "type": "Point",
        "coordinates": [
          109.23463576,
          -0.42729426
        ]
      },
      "properties": {
        "ring_id": "RING-015",
        "radius_m": 5.0,
        "member_count": 4,
        "suspect_count": 0,
        "abnormal_count": 4,
        "mean_ndre": 0.4145,
        "mean_height_m": 8.71,
        "severity_score": 3.4,
        "priority": "Low",
        "zone": "Kuning"
      }
    },
    {
      "type": "Feature",
      "geometry": {
        "type": "Point",
        "coordinates": [
          109.23490683,
          -0.42621052
        ]
      },
      "properties": {
        "ring_id": "RING-044",
        "radius_m": 5.0,
        "member_count": 4,
        "suspect_count": 0,
        "abnormal_count": 4,
        "mean_ndre": 0.4246,
        "mean_height_m": 4.73,
        "severity_score": 3.4,
        "priority": "Low",
        "zone": "Kuning"
      }
    },
    {
      "type": "Feature",
      "geometry": {
        "type": "Point",
        "coordinates": [
          109.23425295,
          -0.42859553
        ]
      },
      "properties": {
        "ring_id": "RING-045",
        "radius_m": 5.0,
        "member_count": 3,
        "suspect_count": 1,
        "abnormal_count": 2,
        "mean_ndre": 0.3907,
        "mean_height_m": 3.98,
        "severity_score": 3.393,
        "priority": "Low",
        "zone": "Kuning"
      }
    },
    {
      "type": "Feature",
      "geometry": {
        "type": "Point",
        "coordinates": [
          109.23448261,
          -0.42791857
        ]
      },
      "properties": {
        "ring_id": "RING-026",
        "radius_m": 5.0,
        "member_count": 3,
        "suspect_count": 1,
        "abnormal_count": 2,
        "mean_ndre": 0.391,
        "mean_height_m": 6.28,
        "severity_score": 3.39,
        "priority": "Low",
        "zone": "Kuning"
      }
    },
    {
      "type": "Feature",
      "geometry": {
        "type": "Point",
        "coordinates": [
          109.23412458,
          -0.42362563
        ]
      },
      "properties": {
        "ring_id": "RING-052",
        "radius_m": 5.0,
        "member_count": 3,
        "suspect_count": 1,
        "abnormal_count": 2,
        "mean_ndre": 0.3956,
        "mean_height_m": 4.04,
        "severity_score": 3.344,
        "priority": "Low",
        "zone": "Kuning"
      }
    },
    {
      "type": "Feature",
      "geometry": {
        "type": "Point",
        "coordinates": [
          109.23373577,
          -0.43021622
        ]
      },
      "properties": {
        "ring_id": "RING-002",
        "radius_m": 5.0,
        "member_count": 3,
        "suspect_count": 1,
        "abnormal_count": 2,
        "mean_ndre": 0.3972,
        "mean_height_m": 11.44,
        "severity_score": 3.328,
        "priority": "Low",
        "zone": "Kuning"
      }
    },
    {
      "type": "Feature",
      "geometry": {
        "type": "Point",
        "coordinates": [
          109.23381888,
          -0.42880281
        ]
      },
      "properties": {
        "ring_id": "RING-051",
        "radius_m": 5.0,
        "member_count": 3,
        "suspect_count": 1,
        "abnormal_count": 2,
        "mean_ndre": 0.3986,
        "mean_height_m": 4.49,
        "severity_score": 3.314,
        "priority": "Low",
        "zone": "Kuning"
      }
    },
    {
      "type": "Feature",
      "geometry": {
        "type": "Point",
        "coordinates": [
          109.23526101,
          -0.42504217
        ]
      },
      "properties": {
        "ring_id": "RING-046",
        "radius_m": 5.0,
        "member_count": 3,
        "suspect_count": 1,
        "abnormal_count": 2,
        "mean_ndre": 0.3986,
        "mean_height_m": 4.52,
        "severity_score": 3.314,
        "priority": "Low",
        "zone": "Kuning"
      }
    },
    {
      "type": "Feature",
      "geometry": {
        "type": "Point",
        "coordinates": [
          109.23543747,
          -0.43119386
        ]
      },
      "properties": {
        "ring_id": "RING-006",
        "radius_m": 5.0,
        "member_count": 3,
        "suspect_count": 1,
        "abnormal_count": 2,
        "mean_ndre": 0.4036,
        "mean_height_m": 9.31,
        "severity_score": 3.3,
        "priority": "Low",
        "zone": "Kuning"
      }
    },
    {
      "type": "Feature",
      "geometry": {
        "type": "Point",
        "coordinates": [
          109.23561136,
          -0.42628129
        ]
      },
      "properties": {
        "ring_id": "RING-042",
        "radius_m": 5.0,
        "member_count": 3,
        "suspect_count": 1,
        "abnormal_count": 2,
        "mean_ndre": 0.4062,
        "mean_height_m": 5.09,
        "severity_score": 3.3,
        "priority": "Low",
        "zone": "Kuning"
      }
    },
    {
      "type": "Feature",
      "geometry": {
        "type": "Point",
        "coordinates": [
          109.23516232,
          -0.42519588
        ]
      },
      "properties": {
        "ring_id": "RING-059",
        "radius_m": 5.0,
        "member_count": 3,
        "suspect_count": 1,
        "abnormal_count": 2,
        "mean_ndre": 0.4016,
        "mean_height_m": 3.39,
        "severity_score": 3.3,
        "priority": "Low",
        "zone": "Kuning"
      }
    },
    {
      "type": "Feature",
      "geometry": {
        "type": "Point",
        "coordinates": [
          109.23545377,
          -0.4240597
        ]
      },
      "properties": {
        "ring_id": "RING-020",
        "radius_m": 5.0,
        "member_count": 3,
        "suspect_count": 1,
        "abnormal_count": 2,
        "mean_ndre": 0.4042,
        "mean_height_m": 5.92,
        "severity_score": 3.3,
        "priority": "Low",
        "zone": "Kuning"
      }
    },
    {
      "type": "Feature",
      "geometry": {
        "type": "Point",
        "coordinates": [
          109.23552419,
          -0.42513221
        ]
      },
      "properties": {
        "ring_id": "RING-027",
        "radius_m": 5.0,
        "member_count": 3,
        "suspect_count": 1,
        "abnormal_count": 2,
        "mean_ndre": 0.411,
        "mean_height_m": 6.62,
        "severity_score": 3.3,
        "priority": "Low",
        "zone": "Kuning"
      }
    },
    {
      "type": "Feature",
      "geometry": {
        "type": "Point",
        "coordinates": [
          109.23439644,
          -0.42433526
        ]
      },
      "properties": {
        "ring_id": "RING-055",
        "radius_m": 5.0,
        "member_count": 3,
        "suspect_count": 1,
        "abnormal_count": 2,
        "mean_ndre": 0.402,
        "mean_height_m": 4.33,
        "severity_score": 3.3,
        "priority": "Low",
        "zone": "Kuning"
      }
    },
    {
      "type": "Feature",
      "geometry": {
        "type": "Point",
        "coordinates": [
          109.23439719,
          -0.42827981
        ]
      },
      "properties": {
        "ring_id": "RING-049",
        "radius_m": 5.0,
        "member_count": 3,
        "suspect_count": 1,
        "abnormal_count": 2,
        "mean_ndre": 0.403,
        "mean_height_m": 4.34,
        "severity_score": 3.3,
        "priority": "Low",
        "zone": "Kuning"
      }
    },
    {
      "type": "Feature",
      "geometry": {
        "type": "Point",
        "coordinates": [
          109.23422631,
          -0.42392754
        ]
      },
      "properties": {
        "ring_id": "RING-047",
        "radius_m": 5.0,
        "member_count": 3,
        "suspect_count": 1,
        "abnormal_count": 2,
        "mean_ndre": 0.4081,
        "mean_height_m": 3.76,
        "severity_score": 3.3,
        "priority": "Low",
        "zone": "Kuning"
      }
    },
    {
      "type": "Feature",
      "geometry": {
        "type": "Point",
        "coordinates": [
          109.23386548,
          -0.4280185
        ]
      },
      "properties": {
        "ring_id": "RING-022",
        "radius_m": 5.0,
        "member_count": 3,
        "suspect_count": 0,
        "abnormal_count": 3,
        "mean_ndre": 0.4171,
        "mean_height_m": 5.91,
        "severity_score": 2.55,
        "priority": "Low",
        "zone": "Kuning"
      }
    },
    {
      "type": "Feature",
      "geometry": {
        "type": "Point",
        "coordinates": [
          109.23372213,
          -0.43094055
        ]
      },
      "properties": {
        "ring_id": "RING-012",
        "radius_m": 5.0,
        "member_count": 3,
        "suspect_count": 0,
        "abnormal_count": 3,
        "mean_ndre": 0.415,
        "mean_height_m": 8.81,
        "severity_score": 2.55,
        "priority": "Low",
        "zone": "Kuning"
      }
    },
    {
      "type": "Feature",
      "geometry": {
        "type": "Point",
        "coordinates": [
          109.23425452,
          -0.42234819
        ]
      },
      "properties": {
        "ring_id": "RING-013",
        "radius_m": 5.0,
        "member_count": 3,
        "suspect_count": 0,
        "abnormal_count": 3,
        "mean_ndre": 0.4101,
        "mean_height_m": 7.33,
        "severity_score": 2.55,
        "priority": "Low",
        "zone": "Kuning"
      }
    },
    {
      "type": "Feature",
      "geometry": {
        "type": "Point",
        "coordinates": [
          109.23471745,
          -0.42617166
        ]
      },
      "properties": {
        "ring_id": "RING-025",
        "radius_m": 5.0,
        "member_count": 3,
        "suspect_count": 0,
        "abnormal_count": 3,
        "mean_ndre": 0.4143,
        "mean_height_m": 7.71,
        "severity_score": 2.55,
        "priority": "Low",
        "zone": "Kuning"
      }
    },
    {
      "type": "Feature",
      "geometry": {
        "type": "Point",
        "coordinates": [
          109.23552617,
          -0.4269803
        ]
      },
      "properties": {
        "ring_id": "RING-016",
        "radius_m": 5.0,
        "member_count": 3,
        "suspect_count": 0,
        "abnormal_count": 3,
        "mean_ndre": 0.4126,
        "mean_height_m": 7.04,
        "severity_score": 2.55,
        "priority": "Low",
        "zone": "Kuning"
      }
    },
    {
      "type": "Feature",
      "geometry": {
        "type": "Point",
        "coordinates": [
          109.23508036,
          -0.42879603
        ]
      },
      "properties": {
        "ring_id": "RING-023",
        "radius_m": 5.0,
        "member_count": 3,
        "suspect_count": 0,
        "abnormal_count": 3,
        "mean_ndre": 0.4148,
        "mean_height_m": 6.52,
        "severity_score": 2.55,
        "priority": "Low",
        "zone": "Kuning"
      }
    },
    {
      "type": "Feature",
      "geometry": {
        "type": "Point",
        "coordinates": [
          109.23568364,
          -0.42246351
        ]
      },
      "properties": {
        "ring_id": "RING-041",
        "radius_m": 5.0,
        "member_count": 3,
        "suspect_count": 0,
        "abnormal_count": 3,
        "mean_ndre": 0.4104,
        "mean_height_m": 4.83,
        "severity_score": 2.55,
        "priority": "Low",
        "zone": "Kuning"
      }
    },
    {
      "type": "Feature",
      "geometry": {
        "type": "Point",
        "coordinates": [
          109.23522378,
          -0.42354223
        ]
      },
      "properties": {
        "ring_id": "RING-035",
        "radius_m": 5.0,
        "member_count": 3,
        "suspect_count": 0,
        "abnormal_count": 3,
        "mean_ndre": 0.4022,
        "mean_height_m": 6.16,
        "severity_score": 2.55,
        "priority": "Low",
        "zone": "Kuning"
      }
    },
    {
      "type": "Feature",
      "geometry": {
        "type": "Point",
        "coordinates": [
          109.23581281,
          -0.42257612
        ]
      },
      "properties": {
        "ring_id": "RING-036",
        "radius_m": 5.0,
        "member_count": 3,
        "suspect_count": 0,
        "abnormal_count": 3,
        "mean_ndre": 0.4141,
        "mean_height_m": 5.3,
        "severity_score": 2.55,
        "priority": "Low",
        "zone": "Kuning"
      }
    },
    {
      "type": "Feature",
      "geometry": {
        "type": "Point",
        "coordinates": [
          109.23420115,
          -0.42332602
        ]
      },
      "properties": {
        "ring_id": "RING-038",
        "radius_m": 5.0,
        "member_count": 3,
        "suspect_count": 0,
        "abnormal_count": 3,
        "mean_ndre": 0.4223,
        "mean_height_m": 4.9,
        "severity_score": 2.55,
        "priority": "Low",
        "zone": "Kuning"
      }
    },
    {
      "type": "Feature",
      "geometry": {
        "type": "Point",
        "coordinates": [
          109.23455051,
          -0.42492972
        ]
      },
      "properties": {
        "ring_id": "RING-053",
        "radius_m": 5.0,
        "member_count": 3,
        "suspect_count": 0,
        "abnormal_count": 3,
        "mean_ndre": 0.4116,
        "mean_height_m": 4.02,
        "severity_score": 2.55,
        "priority": "Low",
        "zone": "Kuning"
      }
    },
    {
      "type": "Feature",
      "geometry": {
        "type": "Point",
        "coordinates": [
          109.23379922,
          -0.42443897
        ]
      },
      "properties": {
        "ring_id": "RING-054",
        "radius_m": 5.0,
        "member_count": 3,
        "suspect_count": 0,
        "abnormal_count": 3,
        "mean_ndre": 0.4069,
        "mean_height_m": 4.31,
        "severity_score": 2.55,
        "priority": "Low",
        "zone": "Kuning"
      }
    },
    {
      "type": "Feature",
      "geometry": {
        "type": "Point",
        "coordinates": [
          109.23418569,
          -0.42742158
        ]
      },
      "properties": {
        "ring_id": "RING-061",
        "radius_m": 5.0,
        "member_count": 3,
        "suspect_count": 0,
        "abnormal_count": 3,
        "mean_ndre": 0.4036,
        "mean_height_m": 3.06,
        "severity_score": 2.55,
        "priority": "Low",
        "zone": "Kuning"
      }
    }
  ],
  "metadata": {
    "source": "E:\\ARENA_PILOT\\CINCIN_API\\D002A\\D002A_absolute_cincin_api.csv",
    "total_rings": 61,
    "generated_by": "cincin_api.export_cincin_api_geojson"
  }
}