{
  "type": "FeatureCollection",
  "features": [
    {
      "type": "Feature",
      "geometry": {
        "type": "Point",
        "coordinates": [
          109.23566818,
          -0.4267811
        ]
      },
      "properties": {
        "ring_id": "RING-004",
        "radius_m": 5.0,
        "member_count": 26,
        "suspect_count": 21,
        "abnormal_count": 5,
        "mean_ndre": 0.3553,
        "mean_height_m": 5.95,
        "severity_score": 37.697,
        "priority": "High",
        "zone": "Merah"
      }
    },
    {
      "type": "Feature",
      "geometry": {
        "type": "Point",
        "coordinates": [
          109.23388371,
          -0.42570709
        ]
      },
      "properties": {
        "ring_id": "RING-047",
        "radius_m": 5.0,
        "member_count": 13,
        "suspect_count": 10,
        "abnormal_count": 3,
        "mean_ndre": 0.3552,
        "mean_height_m": 4.71,
        "severity_score": 18.998,
        "priority": "High",
        "zone": "Merah"
      }
    },
    {
      "type": "Feature",
      "geometry": {
        "type": "Point",
        "coordinates": [
          109.23455893,
          -0.42435669
        ]
      },
      "properties": {
        "ring_id": "RING-043",
        "radius_m": 5.0,
        "member_count": 11,
        "suspect_count": 8,
        "abnormal_count": 3,
        "mean_ndre": 0.3651,
        "mean_height_m": 4.69,
        "severity_score": 15.699,
        "priority": "High",
        "zone": "Merah"
      }
    },
    {
      "type": "Feature",
      "geometry": {
        "type": "Point",
        "coordinates": [
          109.23525411,
          -0.42903671
        ]
      },
      "properties": {
        "ring_id": "RING-006",
        "radius_m": 5.0,
        "member_count": 9,
        "suspect_count": 9,
        "abnormal_count": 0,
        "mean_ndre": 0.34,
        "mean_height_m": 7.73,
        "severity_score": 15.0,
        "priority": "High",
        "zone": "Merah"
      }
    },
    {
      "type": "Feature",
      "geometry": {
        "type": "Point",
        "coordinates": [
          109.23466615,
          -0.42244901
        ]
      },
      "properties": {
        "ring_id": "RING-057",
        "radius_m": 5.0,
        "member_count": 9,
        "suspect_count": 8,
        "abnormal_count": 1,
        "mean_ndre": 0.3426,
        "mean_height_m": 5.06,
        "severity_score": 14.224,
        "priority": "High",
        "zone": "Merah"
      }
    },
    {
      "type": "Feature",
      "geometry": {
        "type": "Point",
        "coordinates": [
          109.23522622,
          -0.4244892
        ]
      },
      "properties": {
        "ring_id": "RING-034",
        "radius_m": 5.0,
        "member_count": 8,
        "suspect_count": 7,
        "abnormal_count": 1,
        "mean_ndre": 0.3518,
        "mean_height_m": 5.68,
        "severity_score": 12.533,
        "priority": "High",
        "zone": "Merah"
      }
    },
    {
      "type": "Feature",
      "geometry": {
        "type": "Point",
        "coordinates": [
          109.23488082,
          -0.42515723
        ]
      },
      "properties": {
        "ring_id": "RING-038",
        "radius_m": 5.0,
        "member_count": 9,
        "suspect_count": 5,
        "abnormal_count": 4,
        "mean_ndre": 0.3677,
        "mean_height_m": 4.53,
        "severity_score": 11.723,
        "priority": "Medium",
        "zone": "Oranye"
      }
    },
    {
      "type": "Feature",
      "geometry": {
        "type": "Point",
        "coordinates": [
          109.23406032,
          -0.42431372
        ]
      },
      "properties": {
        "ring_id": "RING-027",
        "radius_m": 5.0,
        "member_count": 7,
        "suspect_count": 5,
        "abnormal_count": 2,
        "mean_ndre": 0.3357,
        "mean_height_m": 5.67,
        "severity_score": 10.343,
        "priority": "Medium",
        "zone": "Oranye"
      }
    },
    {
      "type": "Feature",
      "geometry": {
        "type": "Point",
        "coordinates": [
          109.23377331,
          -0.42839135
        ]
      },
      "properties": {
        "ring_id": "RING-020",
        "radius_m": 5.0,
        "member_count": 6,
        "suspect_count": 6,
        "abnormal_count": 0,
        "mean_ndre": 0.3422,
        "mean_height_m": 8.09,
        "severity_score": 10.178,
        "priority": "Medium",
        "zone": "Oranye"
      }
    },
    {
      "type": "Feature",
      "geometry": {
        "type": "Point",
        "coordinates": [
          109.23556682,
          -0.42558151
        ]
      },
      "properties": {
        "ring_id": "RING-042",
        "radius_m": 5.0,
        "member_count": 7,
        "suspect_count": 5,
        "abnormal_count": 2,
        "mean_ndre": 0.3557,
        "mean_height_m": 5.23,
        "severity_score": 10.143,
        "priority": "Medium",
        "zone": "Oranye"
      }
    },
    {
      "type": "Feature",
      "geometry": {
        "type": "Point",
        "coordinates": [
          109.23557342,
          -0.42947934
        ]
      },
      "properties": {
        "ring_id": "RING-025",
        "radius_m": 5.0,
        "member_count": 6,
        "suspect_count": 6,
        "abnormal_count": 0,
        "mean_ndre": 0.3538,
        "mean_height_m": 6.48,
        "severity_score": 10.062,
        "priority": "Medium",
        "zone": "Oranye"
      }
    },
    {
      "type": "Feature",
      "geometry": {
        "type": "Point",
        "coordinates": [
          109.23413723,
          -0.42330183
        ]
      },
      "properties": {
        "ring_id": "RING-058",
        "radius_m": 5.0,
        "member_count": 7,
        "suspect_count": 5,
        "abnormal_count": 2,
        "mean_ndre": 0.367,
        "mean_height_m": 4.58,
        "severity_score": 10.03,
        "priority": "Medium",
        "zone": "Oranye"
      }
    },
    {
      "type": "Feature",
      "geometry": {
        "type": "Point",
        "coordinates": [
          109.23407405,
          -0.42656888
        ]
      },
      "properties": {
        "ring_id": "RING-061",
        "radius_m": 5.0,
        "member_count": 6,
        "suspect_count": 5,
        "abnormal_count": 1,
        "mean_ndre": 0.3322,
        "mean_height_m": 4.69,
        "severity_score": 9.528,
        "priority": "Medium",
        "zone": "Oranye"
      }
    },
    {
      "type": "Feature",
      "geometry": {
        "type": "Point",
        "coordinates": [
          109.23527573,
          -0.42287367
        ]
      },
      "properties": {
        "ring_id": "RING-044",
        "radius_m": 5.0,
        "member_count": 6,
        "suspect_count": 4,
        "abnormal_count": 2,
        "mean_ndre": 0.3362,
        "mean_height_m": 4.99,
        "severity_score": 8.738,
        "priority": "Medium",
        "zone": "Oranye"
      }
    },
    {
      "type": "Feature",
      "geometry": {
        "type": "Point",
        "coordinates": [
          109.23483533,
          -0.4309006
        ]
      },
      "properties": {
        "ring_id": "RING-014",
        "radius_m": 5.0,
        "member_count": 5,
        "suspect_count": 5,
        "abnormal_count": 0,
        "mean_ndre": 0.3292,
        "mean_height_m": 8.76,
        "severity_score": 8.708,
        "priority": "Medium",
        "zone": "Oranye"
      }
    },
    {
      "type": "Feature",
      "geometry": {
        "type": "Point",
        "coordinates": [
          109.23463666,
          -0.42690166
        ]
      },
      "properties": {
        "ring_id": "RING-029",
        "radius_m": 5.0,
        "member_count": 5,
        "suspect_count": 5,
        "abnormal_count": 0,
        "mean_ndre": 0.3336,
        "mean_height_m": 7.38,
        "severity_score": 8.664,
        "priority": "Medium",
        "zone": "Oranye"
      }
    },
    {
      "type": "Feature",
      "geometry": {
        "type": "Point",
        "coordinates": [
          109.23388166,
          -0.42963997
        ]
      },
      "properties": {
        "ring_id": "RING-012",
        "radius_m": 5.0,
        "member_count": 5,
        "suspect_count": 5,
        "abnormal_count": 0,
        "mean_ndre": 0.334,
        "mean_height_m": 8.01,
        "severity_score": 8.66,
        "priority": "Medium",
        "zone": "Oranye"
      }
    },
    {
      "type": "Feature",
      "geometry": {
        "type": "Point",
        "coordinates": [
          109.23470201,
          -0.42825713
        ]
      },
      "properties": {
        "ring_id": "RING-045",
        "radius_m": 5.0,
        "member_count": 6,
        "suspect_count": 4,
        "abnormal_count": 2,
        "mean_ndre": 0.3525,
        "mean_height_m": 5.39,
        "severity_score": 8.575,
        "priority": "Medium",
        "zone": "Oranye"
      }
    },
    {
      "type": "Feature",
      "geometry": {
        "type": "Point",
        "coordinates": [
          109.23403733,
          -0.42695859
        ]
      },
      "properties": {
        "ring_id": "RING-081",
        "radius_m": 5.0,
        "member_count": 7,
        "suspect_count": 3,
        "abnormal_count": 4,
        "mean_ndre": 0.365,
        "mean_height_m": 3.95,
        "severity_score": 8.55,
        "priority": "Medium",
        "zone": "Oranye"
      }
    },
    {
      "type": "Feature",
      "geometry": {
        "type": "Point",
        "coordinates": [
          109.23513281,
          -0.43102764
        ]
      },
      "properties": {
        "ring_id": "RING-002",
        "radius_m": 5.0,
        "member_count": 5,
        "suspect_count": 5,
        "abnormal_count": 0,
        "mean_ndre": 0.3462,
        "mean_height_m": 8.97,
        "severity_score": 8.538,
        "priority": "Medium",
        "zone": "Oranye"
      }
    },
    {
      "type": "Feature",
      "geometry": {
        "type": "Point",
        "coordinates": [
          109.23417245,
          -0.42243822
        ]
      },
      "properties": {
        "ring_id": "RING-018",
        "radius_m": 5.0,
        "member_count": 6,
        "suspect_count": 4,
        "abnormal_count": 2,
        "mean_ndre": 0.37,
        "mean_height_m": 5.36,
        "severity_score": 8.4,
        "priority": "Medium",
        "zone": "Oranye"
      }
    },
    {
      "type": "Feature",
      "geometry": {
        "type": "Point",
        "coordinates": [
          109.23438723,
          -0.42678133
        ]
      },
      "properties": {
        "ring_id": "RING-040",
        "radius_m": 5.0,
        "member_count": 5,
        "suspect_count": 4,
        "abnormal_count": 1,
        "mean_ndre": 0.342,
        "mean_height_m": 5.43,
        "severity_score": 7.83,
        "priority": "Medium",
        "zone": "Oranye"
      }
    },
    {
      "type": "Feature",
      "geometry": {
        "type": "Point",
        "coordinates": [
          109.23436469,
          -0.42832306
        ]
      },
      "properties": {
        "ring_id": "RING-079",
        "radius_m": 5.0,
        "member_count": 5,
        "suspect_count": 4,
        "abnormal_count": 1,
        "mean_ndre": 0.3486,
        "mean_height_m": 4.42,
        "severity_score": 7.764,
        "priority": "Medium",
        "zone": "Oranye"
      }
    },
    {
      "type": "Feature",
      "geometry": {
        "type": "Point",
        "coordinates": [
          109.23516801,
          -0.42719007
        ]
      },
      "properties": {
        "ring_id": "RING-039",
        "radius_m": 5.0,
        "member_count": 5,
        "suspect_count": 4,
        "abnormal_count": 1,
        "mean_ndre": 0.3542,
        "mean_height_m": 4.97,
        "severity_score": 7.708,
        "priority": "Medium",
        "zone": "Oranye"
      }
    },
    {
      "type": "Feature",
      "geometry": {
        "type": "Point",
        "coordinates": [
          109.23411477,
          -0.42775657
        ]
      },
      "properties": {
        "ring_id": "RING-008",
        "radius_m": 5.0,
        "member_count": 4,
        "suspect_count": 4,
        "abnormal_count": 0,
        "mean_ndre": 0.3362,
        "mean_height_m": 8.22,
        "severity_score": 7.038,
        "priority": "Medium",
        "zone": "Oranye"
      }
    },
    {
      "type": "Feature",
      "geometry": {
        "type": "Point",
        "coordinates": [
          109.23456951,
          -0.43072945
        ]
      },
      "properties": {
        "ring_id": "RING-009",
        "radius_m": 5.0,
        "member_count": 4,
        "suspect_count": 4,
        "abnormal_count": 0,
        "mean_ndre": 0.3443,
        "mean_height_m": 9.67,
        "severity_score": 6.958,
        "priority": "Low",
        "zone": "Kuning"
      }
    },
    {
      "type": "Feature",
      "geometry": {
        "type": "Point",
        "coordinates": [
          109.23443129,
          -0.42727714
        ]
      },
      "properties": {
        "ring_id": "RING-046",
        "radius_m": 5.0,
        "member_count": 4,
        "suspect_count": 4,
        "abnormal_count": 0,
        "mean_ndre": 0.3448,
        "mean_height_m": 5.9,
        "severity_score": 6.953,
        "priority": "Low",
        "zone": "Kuning"
      }
    },
    {
      "type": "Feature",
      "geometry": {
        "type": "Point",
        "coordinates": [
          109.2357004,
          -0.42446518
        ]
      },
      "properties": {
        "ring_id": "RING-053",
        "radius_m": 5.0,
        "member_count": 4,
        "suspect_count": 4,
        "abnormal_count": 0,
        "mean_ndre": 0.346,
        "mean_height_m": 5.82,
        "severity_score": 6.94,
        "priority": "Low",
        "zone": "Kuning"
      }
    },
    {
      "type": "Feature",
      "geometry": {
        "type": "Point",
        "coordinates": [
          109.23382078,
          -0.42884449
        ]
      },
      "properties": {
        "ring_id": "RING-073",
        "radius_m": 5.0,
        "member_count": 4,
        "suspect_count": 4,
        "abnormal_count": 0,
        "mean_ndre": 0.346,
        "mean_height_m": 4.68,
        "severity_score": 6.94,
        "priority": "Low",
        "zone": "Kuning"
      }
    },
    {
      "type": "Feature",
      "geometry": {
        "type": "Point",
        "coordinates": [
          109.23463576,
          -0.42729426
        ]
      },
      "properties": {
        "ring_id": "RING-022",
        "radius_m": 5.0,
        "member_count": 4,
        "suspect_count": 4,
        "abnormal_count": 0,
        "mean_ndre": 0.3472,
        "mean_height_m": 8.71,
        "severity_score": 6.928,
        "priority": "Low",
        "zone": "Kuning"
      }
    },
    {
      "type": "Feature",
      "geometry": {
        "type": "Point",
        "coordinates": [
          109.23501238,
          -0.43060894
        ]
      },
      "properties": {
        "ring_id": "RING-026",
        "radius_m": 5.0,
        "member_count": 4,
        "suspect_count": 4,
        "abnormal_count": 0,
        "mean_ndre": 0.3513,
        "mean_height_m": 7.27,
        "severity_score": 6.888,
        "priority": "Low",
        "zone": "Kuning"
      }
    },
    {
      "type": "Feature",
      "geometry": {
        "type": "Point",
        "coordinates": [
          109.23493405,
          -0.42620207
        ]
      },
      "properties": {
        "ring_id": "RING-069",
        "radius_m": 5.0,
        "member_count": 5,
        "suspect_count": 3,
        "abnormal_count": 2,
        "mean_ndre": 0.3754,
        "mean_height_m": 4.5,
        "severity_score": 6.746,
        "priority": "Low",
        "zone": "Kuning"
      }
    },
    {
      "type": "Feature",
      "geometry": {
        "type": "Point",
        "coordinates": [
          109.23563945,
          -0.42289643
        ]
      },
      "properties": {
        "ring_id": "RING-077",
        "radius_m": 5.0,
        "member_count": 4,
        "suspect_count": 3,
        "abnormal_count": 1,
        "mean_ndre": 0.3413,
        "mean_height_m": 4.23,
        "severity_score": 6.237,
        "priority": "Low",
        "zone": "Kuning"
      }
    },
    {
      "type": "Feature",
      "geometry": {
        "type": "Point",
        "coordinates": [
          109.23410284,
          -0.42935153
        ]
      },
      "properties": {
        "ring_id": "RING-023",
        "radius_m": 5.0,
        "member_count": 4,
        "suspect_count": 3,
        "abnormal_count": 1,
        "mean_ndre": 0.3538,
        "mean_height_m": 5.88,
        "severity_score": 6.113,
        "priority": "Low",
        "zone": "Kuning"
      }
    },
    {
      "type": "Feature",
      "geometry": {
        "type": "Point",
        "coordinates": [
          109.23493338,
          -0.42942587
        ]
      },
      "properties": {
        "ring_id": "RING-067",
        "radius_m": 5.0,
        "member_count": 4,
        "suspect_count": 3,
        "abnormal_count": 1,
        "mean_ndre": 0.3628,
        "mean_height_m": 4.82,
        "severity_score": 6.023,
        "priority": "Low",
        "zone": "Kuning"
      }
    },
    {
      "type": "Feature",
      "geometry": {
        "type": "Point",
        "coordinates": [
          109.23586484,
          -0.4255246
        ]
      },
      "properties": {
        "ring_id": "RING-052",
        "radius_m": 5.0,
        "member_count": 3,
        "suspect_count": 3,
        "abnormal_count": 0,
        "mean_ndre": 0.2857,
        "mean_height_m": 6.5,
        "severity_score": 5.943,
        "priority": "Low",
        "zone": "Kuning"
      }
    },
    {
      "type": "Feature",
      "geometry": {
        "type": "Point",
        "coordinates": [
          109.2341789,
          -0.42619713
        ]
      },
      "properties": {
        "ring_id": "RING-066",
        "radius_m": 5.0,
        "member_count": 4,
        "suspect_count": 3,
        "abnormal_count": 1,
        "mean_ndre": 0.3715,
        "mean_height_m": 4.94,
        "severity_score": 5.935,
        "priority": "Low",
        "zone": "Kuning"
      }
    },
    {
      "type": "Feature",
      "geometry": {
        "type": "Point",
        "coordinates": [
          109.23447376,
          -0.4222349
        ]
      },
      "properties": {
        "ring_id": "RING-048",
        "radius_m": 5.0,
        "member_count": 4,
        "suspect_count": 3,
        "abnormal_count": 1,
        "mean_ndre": 0.3802,
        "mean_height_m": 5.06,
        "severity_score": 5.848,
        "priority": "Low",
        "zone": "Kuning"
      }
    },
    {
      "type": "Feature",
      "geometry": {
        "type": "Point",
        "coordinates": [
          109.2358355,
          -0.42813847
        ]
      },
      "properties": {
        "ring_id": "RING-010",
        "radius_m": 5.0,
        "member_count": 3,
        "suspect_count": 3,
        "abnormal_count": 0,
        "mean_ndre": 0.299,
        "mean_height_m": 8.11,
        "severity_score": 5.81,
        "priority": "Low",
        "zone": "Kuning"
      }
    },
    {
      "type": "Feature",
      "geometry": {
        "type": "Point",
        "coordinates": [
          109.2350513,
          -0.42736376
        ]
      },
      "properties": {
        "ring_id": "RING-087",
        "radius_m": 5.0,
        "member_count": 4,
        "suspect_count": 2,
        "abnormal_count": 2,
        "mean_ndre": 0.3145,
        "mean_height_m": 3.91,
        "severity_score": 5.755,
        "priority": "Low",
        "zone": "Kuning"
      }
    },
    {
      "type": "Feature",
      "geometry": {
        "type": "Point",
        "coordinates": [
          109.23583558,
          -0.42844232
        ]
      },
      "properties": {
        "ring_id": "RING-030",
        "radius_m": 5.0,
        "member_count": 3,
        "suspect_count": 3,
        "abnormal_count": 0,
        "mean_ndre": 0.3133,
        "mean_height_m": 7.14,
        "severity_score": 5.667,
        "priority": "Low",
        "zone": "Kuning"
      }
    },
    {
      "type": "Feature",
      "geometry": {
        "type": "Point",
        "coordinates": [
          109.2336515,
          -0.42355484
        ]
      },
      "properties": {
        "ring_id": "RING-005",
        "radius_m": 5.0,
        "member_count": 3,
        "suspect_count": 3,
        "abnormal_count": 0,
        "mean_ndre": 0.3143,
        "mean_height_m": 9.73,
        "severity_score": 5.657,
        "priority": "Low",
        "zone": "Kuning"
      }
    },
    {
      "type": "Feature",
      "geometry": {
        "type": "Point",
        "coordinates": [
          109.23477799,
          -0.43053568
        ]
      },
      "properties": {
        "ring_id": "RING-015",
        "radius_m": 5.0,
        "member_count": 3,
        "suspect_count": 3,
        "abnormal_count": 0,
        "mean_ndre": 0.322,
        "mean_height_m": 7.42,
        "severity_score": 5.58,
        "priority": "Low",
        "zone": "Kuning"
      }
    },
    {
      "type": "Feature",
      "geometry": {
        "type": "Point",
        "coordinates": [
          109.23430364,
          -0.42558694
        ]
      },
      "properties": {
        "ring_id": "RING-062",
        "radius_m": 5.0,
        "member_count": 3,
        "suspect_count": 3,
        "abnormal_count": 0,
        "mean_ndre": 0.3227,
        "mean_height_m": 4.9,
        "severity_score": 5.573,
        "priority": "Low",
        "zone": "Kuning"
      }
    },
    {
      "type": "Feature",
      "geometry": {
        "type": "Point",
        "coordinates": [
          109.23448261,
          -0.42791857
        ]
      },
      "properties": {
        "ring_id": "RING-036",
        "radius_m": 5.0,
        "member_count": 3,
        "suspect_count": 3,
        "abnormal_count": 0,
        "mean_ndre": 0.3267,
        "mean_height_m": 6.28,
        "severity_score": 5.533,
        "priority": "Low",
        "zone": "Kuning"
      }
    },
    {
      "type": "Feature",
      "geometry": {
        "type": "Point",
        "coordinates": [
          109.23527135,
          -0.4250219
        ]
      },
      "properties": {
        "ring_id": "RING-074",
        "radius_m": 5.0,
        "member_count": 4,
        "suspect_count": 2,
        "abnormal_count": 2,
        "mean_ndre": 0.3448,
        "mean_height_m": 4.38,
        "severity_score": 5.453,
        "priority": "Low",
        "zone": "Kuning"
      }
    },
    {
      "type": "Feature",
      "geometry": {
        "type": "Point",
        "coordinates": [
          109.23373577,
          -0.43021622
        ]
      },
      "properties": {
        "ring_id": "RING-003",
        "radius_m": 5.0,
        "member_count": 3,
        "suspect_count": 3,
        "abnormal_count": 0,
        "mean_ndre": 0.3367,
        "mean_height_m": 11.44,
        "severity_score": 5.433,
        "priority": "Low",
        "zone": "Kuning"
      }
    },
    {
      "type": "Feature",
      "geometry": {
        "type": "Point",
        "coordinates": [
          109.23522378,
          -0.42354223
        ]
      },
      "properties": {
        "ring_id": "RING-050",
        "radius_m": 5.0,
        "member_count": 3,
        "suspect_count": 3,
        "abnormal_count": 0,
        "mean_ndre": 0.3377,
        "mean_height_m": 6.16,
        "severity_score": 5.423,
        "priority": "Low",
        "zone": "Kuning"
      }
    },
    {
      "type": "Feature",
      "geometry": {
        "type": "Point",
        "coordinates": [
          109.23557131,
          -0.42266816
        ]
      },
      "properties": {
        "ring_id": "RING-072",
        "radius_m": 5.0,
        "member_count": 3,
        "suspect_count": 3,
        "abnormal_count": 0,
        "mean_ndre": 0.3383,
        "mean_height_m": 4.49,
        "severity_score": 5.417,
        "priority": "Low",
        "zone": "Kuning"
      }
    },
    {
      "type": "Feature",
      "geometry": {
        "type": "Point",
        "coordinates": [
          109.23543747,
          -0.43119386
        ]
      },
      "properties": {
        "ring_id": "RING-007",
        "radius_m": 5.0,
        "member_count": 3,
        "suspect_count": 3,
        "abnormal_count": 0,
        "mean_ndre": 0.3397,
        "mean_height_m": 9.31,
        "severity_score": 5.403,
        "priority": "Low",
        "zone": "Kuning"
      }
    },
    {
      "type": "Feature",
      "geometry": {
        "type": "Point",
        "coordinates": [
          109.23546553,
          -0.42830719
        ]
      },
      "properties": {
        "ring_id": "RING-068",
        "radius_m": 5.0,
        "member_count": 3,
        "suspect_count": 3,
        "abnormal_count": 0,
        "mean_ndre": 0.3413,
        "mean_height_m": 5.21,
        "severity_score": 5.387,
        "priority": "Low",
        "zone": "Kuning"
      }
    },
    {
      "type": "Feature",
      "geometry": {
        "type": "Point",
        "coordinates": [
          109.23588198,
          -0.42321819
        ]
      },
      "properties": {
        "ring_id": "RING-021",
        "radius_m": 5.0,
        "member_count": 3,
        "suspect_count": 3,
        "abnormal_count": 0,
        "mean_ndre": 0.344,
        "mean_height_m": 7.22,
        "severity_score": 5.36,
        "priority": "Low",
        "zone": "Kuning"
      }
    },
    {
      "type": "Feature",
      "geometry": {
        "type": "Point",
        "coordinates": [
          109.23565335,
          -0.43055532
        ]
      },
      "properties": {
        "ring_id": "RING-013",
        "radius_m": 5.0,
        "member_count": 3,
        "suspect_count": 3,
        "abnormal_count": 0,
        "mean_ndre": 0.346,
        "mean_height_m": 8.21,
        "severity_score": 5.34,
        "priority": "Low",
        "zone": "Kuning"
      }
    },
    {
      "type": "Feature",
      "geometry": {
        "type": "Point",
        "coordinates": [
          109.23552419,
          -0.42513221
        ]
      },
      "properties": {
        "ring_id": "RING-037",
        "radius_m": 5.0,
        "member_count": 3,
        "suspect_count": 3,
        "abnormal_count": 0,
        "mean_ndre": 0.3467,
        "mean_height_m": 6.62,
        "severity_score": 5.333,
        "priority": "Low",
        "zone": "Kuning"
      }
    },
    {
      "type": "Feature",
      "geometry": {
        "type": "Point",
        "coordinates": [
          109.23372213,
          -0.43094055
        ]
      },
      "properties": {
        "ring_id": "RING-016",
        "radius_m": 5.0,
        "member_count": 3,
        "suspect_count": 3,
        "abnormal_count": 0,
        "mean_ndre": 0.3513,
        "mean_height_m": 8.81,
        "severity_score": 5.287,
        "priority": "Low",
        "zone": "Kuning"
      }
    },
    {
      "type": "Feature",
      "geometry": {
        "type": "Point",
        "coordinates": [
          109.23498632,
          -0.42360503
        ]
      },
      "properties": {
        "ring_id": "RING-075",
        "radius_m": 5.0,
        "member_count": 3,
        "suspect_count": 3,
        "abnormal_count": 0,
        "mean_ndre": 0.3513,
        "mean_height_m": 4.85,
        "severity_score": 5.287,
        "priority": "Low",
        "zone": "Kuning"
      }
    },
    {
      "type": "Feature",
      "geometry": {
        "type": "Point",
        "coordinates": [
          109.23532692,
          -0.42754468
        ]
      },
      "properties": {
        "ring_id": "RING-070",
        "radius_m": 5.0,
        "member_count": 3,
        "suspect_count": 3,
        "abnormal_count": 0,
        "mean_ndre": 0.352,
        "mean_height_m": 5.09,
        "severity_score": 5.28,
        "priority": "Low",
        "zone": "Kuning"
      }
    },
    {
      "type": "Feature",
      "geometry": {
        "type": "Point",
        "coordinates": [
          109.23438546,
          -0.43112428
        ]
      },
      "properties": {
        "ring_id": "RING-011",
        "radius_m": 5.0,
        "member_count": 3,
        "suspect_count": 3,
        "abnormal_count": 0,
        "mean_ndre": 0.354,
        "mean_height_m": 9.44,
        "severity_score": 5.26,
        "priority": "Low",
        "zone": "Kuning"
      }
    },
    {
      "type": "Feature",
      "geometry": {
        "type": "Point",
        "coordinates": [
          109.23457813,
          -0.42492611
        ]
      },
      "properties": {
        "ring_id": "RING-083",
        "radius_m": 5.0,
        "member_count": 4,
        "suspect_count": 2,
        "abnormal_count": 2,
        "mean_ndre": 0.3642,
        "mean_height_m": 3.89,
        "severity_score": 5.258,
        "priority": "Low",
        "zone": "Kuning"
      }
    },
    {
      "type": "Feature",
      "geometry": {
        "type": "Point",
        "coordinates": [
          109.23471745,
          -0.42617166
        ]
      },
      "properties": {
        "ring_id": "RING-035",
        "radius_m": 5.0,
        "member_count": 3,
        "suspect_count": 3,
        "abnormal_count": 0,
        "mean_ndre": 0.3547,
        "mean_height_m": 7.71,
        "severity_score": 5.253,
        "priority": "Low",
        "zone": "Kuning"
      }
    },
    {
      "type": "Feature",
      "geometry": {
        "type": "Point",
        "coordinates": [
          109.23516709,
          -0.42395805
        ]
      },
      "properties": {
        "ring_id": "RING-031",
        "radius_m": 5.0,
        "member_count": 3,
        "suspect_count": 3,
        "abnormal_count": 0,
        "mean_ndre": 0.3577,
        "mean_height_m": 6.85,
        "severity_score": 5.223,
        "priority": "Low",
        "zone": "Kuning"
      }
    },
    {
      "type": "Feature",
      "geometry": {
        "type": "Point",
        "coordinates": [
          109.23389977,
          -0.42519555
        ]
      },
      "properties": {
        "ring_id": "RING-064",
        "radius_m": 5.0,
        "member_count": 4,
        "suspect_count": 2,
        "abnormal_count": 2,
        "mean_ndre": 0.3683,
        "mean_height_m": 4.59,
        "severity_score": 5.218,
        "priority": "Low",
        "zone": "Kuning"
      }
    },
    {
      "type": "Feature",
      "geometry": {
        "type": "Point",
        "coordinates": [
          109.23532405,
          -0.4243412
        ]
      },
      "properties": {
        "ring_id": "RING-086",
        "radius_m": 5.0,
        "member_count": 3,
        "suspect_count": 3,
        "abnormal_count": 0,
        "mean_ndre": 0.362,
        "mean_height_m": 4.38,
        "severity_score": 5.18,
        "priority": "Low",
        "zone": "Kuning"
      }
    },
    {
      "type": "Feature",
      "geometry": {
        "type": "Point",
        "coordinates": [
          109.2340722,
          -0.43074998
        ]
      },
      "properties": {
        "ring_id": "RING-001",
        "radius_m": 5.0,
        "member_count": 3,
        "suspect_count": 3,
        "abnormal_count": 0,
        "mean_ndre": 0.3673,
        "mean_height_m": 11.26,
        "severity_score": 5.127,
        "priority": "Low",
        "zone": "Kuning"
      }
    },
    {
      "type": "Feature",
      "geometry": {
        "type": "Point",
        "coordinates": [
          109.23563899,
          -0.42920897
        ]
      },
      "properties": {
        "ring_id": "RING-017",
        "radius_m": 5.0,
        "member_count": 3,
        "suspect_count": 3,
        "abnormal_count": 0,
        "mean_ndre": 0.3717,
        "mean_height_m": 9.17,
        "severity_score": 5.083,
        "priority": "Low",
        "zone": "Kuning"
      }
    },
    {
      "type": "Feature",
      "geometry": {
        "type": "Point",
        "coordinates": [
          109.23508878,
          -0.42550136
        ]
      },
      "properties": {
        "ring_id": "RING-055",
        "radius_m": 5.0,
        "member_count": 4,
        "suspect_count": 2,
        "abnormal_count": 2,
        "mean_ndre": 0.3892,
        "mean_height_m": 4.12,
        "severity_score": 5.008,
        "priority": "Low",
        "zone": "Kuning"
      }
    },
    {
      "type": "Feature",
      "geometry": {
        "type": "Point",
        "coordinates": [
          109.23485506,
          -0.42475877
        ]
      },
      "properties": {
        "ring_id": "RING-059",
        "radius_m": 5.0,
        "member_count": 4,
        "suspect_count": 2,
        "abnormal_count": 2,
        "mean_ndre": 0.39,
        "mean_height_m": 4.08,
        "severity_score": 5.0,
        "priority": "Low",
        "zone": "Kuning"
      }
    },
    {
      "type": "Feature",
      "geometry": {
        "type": "Point",
        "coordinates": [
          109.23589,
          -0.42879983
        ]
      },
      "properties": {
        "ring_id": "RING-019",
        "radius_m": 5.0,
        "member_count": 3,
        "suspect_count": 1,
        "abnormal_count": 2,
        "mean_ndre": 0.2497,
        "mean_height_m": 4.38,
        "severity_score": 4.803,
        "priority": "Low",
        "zone": "Kuning"
      }
    },
    {
      "type": "Feature",
      "geometry": {
        "type": "Point",
        "coordinates": [
          109.23412458,
          -0.42362563
        ]
      },
      "properties": {
        "ring_id": "RING-082",
        "radius_m": 5.0,
        "member_count": 3,
        "suspect_count": 2,
        "abnormal_count": 1,
        "mean_ndre": 0.3303,
        "mean_height_m": 4.04,
        "severity_score": 4.747,
        "priority": "Low",
        "zone": "Kuning"
      }
    },
    {
      "type": "Feature",
      "geometry": {
        "type": "Point",
        "coordinates": [
          109.23379922,
          -0.42443897
        ]
      },
      "properties": {
        "ring_id": "RING-084",
        "radius_m": 5.0,
        "member_count": 3,
        "suspect_count": 2,
        "abnormal_count": 1,
        "mean_ndre": 0.341,
        "mean_height_m": 4.31,
        "severity_score": 4.64,
        "priority": "Low",
        "zone": "Kuning"
      }
    },
    {
      "type": "Feature",
      "geometry": {
        "type": "Point",
        "coordinates": [
          109.23563599,
          -0.42330269
        ]
      },
      "properties": {
        "ring_id": "RING-056",
        "radius_m": 5.0,
        "member_count": 3,
        "suspect_count": 2,
        "abnormal_count": 1,
        "mean_ndre": 0.3413,
        "mean_height_m": 4.53,
        "severity_score": 4.637,
        "priority": "Low",
        "zone": "Kuning"
      }
    },
    {
      "type": "Feature",
      "geometry": {
        "type": "Point",
        "coordinates": [
          109.23545377,
          -0.4240597
        ]
      },
      "properties": {
        "ring_id": "RING-028",
        "radius_m": 5.0,
        "member_count": 3,
        "suspect_count": 2,
        "abnormal_count": 1,
        "mean_ndre": 0.3427,
        "mean_height_m": 5.92,
        "severity_score": 4.623,
        "priority": "Low",
        "zone": "Kuning"
      }
    },
    {
      "type": "Feature",
      "geometry": {
        "type": "Point",
        "coordinates": [
          109.23561136,
          -0.42628129
        ]
      },
      "properties": {
        "ring_id": "RING-065",
        "radius_m": 5.0,
        "member_count": 3,
        "suspect_count": 2,
        "abnormal_count": 1,
        "mean_ndre": 0.343,
        "mean_height_m": 5.09,
        "severity_score": 4.62,
        "priority": "Low",
        "zone": "Kuning"
      }
    },
    {
      "type": "Feature",
      "geometry": {
        "type": "Point",
        "coordinates": [
          109.23568364,
          -0.42246351
        ]
      },
      "properties": {
        "ring_id": "RING-063",
        "radius_m": 5.0,
        "member_count": 3,
        "suspect_count": 2,
        "abnormal_count": 1,
        "mean_ndre": 0.348,
        "mean_height_m": 4.83,
        "severity_score": 4.57,
        "priority": "Low",
        "zone": "Kuning"
      }
    },
    {
      "type": "Feature",
      "geometry": {
        "type": "Point",
        "coordinates": [
          109.2349621,
          -0.42805538
        ]
      },
      "properties": {
        "ring_id": "RING-071",
        "radius_m": 5.0,
        "member_count": 3,
        "suspect_count": 2,
        "abnormal_count": 1,
        "mean_ndre": 0.3483,
        "mean_height_m": 4.71,
        "severity_score": 4.567,
        "priority": "Low",
        "zone": "Kuning"
      }
    },
    {
      "type": "Feature",
      "geometry": {
        "type": "Point",
        "coordinates": [
          109.23373923,
          -0.42689231
        ]
      },
      "properties": {
        "ring_id": "RING-091",
        "radius_m": 5.0,
        "member_count": 3,
        "suspect_count": 2,
        "abnormal_count": 1,
        "mean_ndre": 0.3503,
        "mean_height_m": 4.03,
        "severity_score": 4.547,
        "priority": "Low",
        "zone": "Kuning"
      }
    },
    {
      "type": "Feature",
      "geometry": {
        "type": "Point",
        "coordinates": [
          109.23530889,
          -0.42848425
        ]
      },
      "properties": {
        "ring_id": "RING-060",
        "radius_m": 5.0,
        "member_count": 3,
        "suspect_count": 2,
        "abnormal_count": 1,
        "mean_ndre": 0.3517,
        "mean_height_m": 4.96,
        "severity_score": 4.533,
        "priority": "Low",
        "zone": "Kuning"
      }
    },
    {
      "type": "Feature",
      "geometry": {
        "type": "Point",
        "coordinates": [
          109.23508036,
          -0.42879603
        ]
      },
      "properties": {
        "ring_id": "RING-033",
        "radius_m": 5.0,
        "member_count": 3,
        "suspect_count": 2,
        "abnormal_count": 1,
        "mean_ndre": 0.3537,
        "mean_height_m": 6.52,
        "severity_score": 4.513,
        "priority": "Low",
        "zone": "Kuning"
      }
    },
    {
      "type": "Feature",
      "geometry": {
        "type": "Point",
        "coordinates": [
          109.23581281,
          -0.42257612
        ]
      },
      "properties": {
        "ring_id": "RING-051",
        "radius_m": 5.0,
        "member_count": 3,
        "suspect_count": 2,
        "abnormal_count": 1,
        "mean_ndre": 0.354,
        "mean_height_m": 5.3,
        "severity_score": 4.51,
        "priority": "Low",
        "zone": "Kuning"
      }
    },
    {
      "type": "Feature",
      "geometry": {
        "type": "Point",
        "coordinates": [
          109.23386548,
          -0.4280185
        ]
      },
      "properties": {
        "ring_id": "RING-032",
        "radius_m": 5.0,
        "member_count": 3,
        "suspect_count": 2,
        "abnormal_count": 1,
        "mean_ndre": 0.3573,
        "mean_height_m": 5.91,
        "severity_score": 4.477,
        "priority": "Low",
        "zone": "Kuning"
      }
    },
    {
      "type": "Feature",
      "geometry": {
        "type": "Point",
        "coordinates": [
          109.23402825,
          -0.42848802
        ]
      },
      "properties": {
        "ring_id": "RING-093",
        "radius_m": 5.0,
        "member_count": 3,
        "suspect_count": 2,
        "abnormal_count": 1,
        "mean_ndre": 0.3707,
        "mean_height_m": 3.92,
        "severity_score": 4.343,
        "priority": "Low",
        "zone": "Kuning"
      }
    },
    {
      "type": "Feature",
      "geometry": {
        "type": "Point",
        "coordinates": [
          109.23568077,
          -0.42523021
        ]
      },
      "properties": {
        "ring_id": "RING-092",
        "radius_m": 5.0,
        "member_count": 3,
        "suspect_count": 1,
        "abnormal_count": 2,
        "mean_ndre": 0.296,
        "mean_height_m": 3.86,
        "severity_score": 4.34,
        "priority": "Low",
        "zone": "Kuning"
      }
    },
    {
      "type": "Feature",
      "geometry": {
        "type": "Point",
        "coordinates": [
          109.23398988,
          -0.42737708
        ]
      },
      "properties": {
        "ring_id": "RING-078",
        "radius_m": 5.0,
        "member_count": 3,
        "suspect_count": 2,
        "abnormal_count": 1,
        "mean_ndre": 0.3733,
        "mean_height_m": 4.34,
        "severity_score": 4.317,
        "priority": "Low",
        "zone": "Kuning"
      }
    },
    {
      "type": "Feature",
      "geometry": {
        "type": "Point",
        "coordinates": [
          109.23439315,
          -0.42763882
        ]
      },
      "properties": {
        "ring_id": "RING-076",
        "radius_m": 5.0,
        "member_count": 3,
        "suspect_count": 2,
        "abnormal_count": 1,
        "mean_ndre": 0.3753,
        "mean_height_m": 4.22,
        "severity_score": 4.297,
        "priority": "Low",
        "zone": "Kuning"
      }
    },
    {
      "type": "Feature",
      "geometry": {
        "type": "Point",
        "coordinates": [
          109.23449297,
          -0.42514041
        ]
      },
      "properties": {
        "ring_id": "RING-088",
        "radius_m": 5.0,
        "member_count": 3,
        "suspect_count": 2,
        "abnormal_count": 1,
        "mean_ndre": 0.378,
        "mean_height_m": 4.14,
        "severity_score": 4.27,
        "priority": "Low",
        "zone": "Kuning"
      }
    },
    {
      "type": "Feature",
      "geometry": {
        "type": "Point",
        "coordinates": [
          109.23569088,
          -0.42355259
        ]
      },
      "properties": {
        "ring_id": "RING-085",
        "radius_m": 5.0,
        "member_count": 3,
        "suspect_count": 2,
        "abnormal_count": 1,
        "mean_ndre": 0.382,
        "mean_height_m": 4.19,
        "severity_score": 4.23,
        "priority": "Low",
        "zone": "Kuning"
      }
    },
    {
      "type": "Feature",
      "geometry": {
        "type": "Point",
        "coordinates": [
          109.23426559,
          -0.42960202
        ]
      },
      "properties": {
        "ring_id": "RING-054",
        "radius_m": 5.0,
        "member_count": 3,
        "suspect_count": 2,
        "abnormal_count": 1,
        "mean_ndre": 0.3843,
        "mean_height_m": 5.73,
        "severity_score": 4.207,
        "priority": "Low",
        "zone": "Kuning"
      }
    },
    {
      "type": "Feature",
      "geometry": {
        "type": "Point",
        "coordinates": [
          109.2337983,
          -0.42652654
        ]
      },
      "properties": {
        "ring_id": "RING-090",
        "radius_m": 5.0,
        "member_count": 3,
        "suspect_count": 1,
        "abnormal_count": 2,
        "mean_ndre": 0.3353,
        "mean_height_m": 3.23,
        "severity_score": 3.947,
        "priority": "Low",
        "zone": "Kuning"
      }
    },
    {
      "type": "Feature",
      "geometry": {
        "type": "Point",
        "coordinates": [
          109.23445651,
          -0.42811947
        ]
      },
      "properties": {
        "ring_id": "RING-094",
        "radius_m": 5.0,
        "member_count": 3,
        "suspect_count": 1,
        "abnormal_count": 2,
        "mean_ndre": 0.3443,
        "mean_height_m": 3.72,
        "severity_score": 3.857,
        "priority": "Low",
        "zone": "Kuning"
      }
    },
    {
      "type": "Feature",
      "geometry": {
        "type": "Point",
        "coordinates": [
          109.23459368,
          -0.42468633
        ]
      },
      "properties": {
        "ring_id": "RING-089",
        "radius_m": 5.0,
        "member_count": 3,
        "suspect_count": 1,
        "abnormal_count": 2,
        "mean_ndre": 0.3563,
        "mean_height_m": 3.52,
        "severity_score": 3.737,
        "priority": "Low",
        "zone": "Kuning"
      }
    },
    {
      "type": "Feature",
      "geometry": {
        "type": "Point",
        "coordinates": [
          109.23527049,
          -0.42618823
        ]
      },
      "properties": {
        "ring_id": "RING-049",
        "radius_m": 5.0,
        "member_count": 3,
        "suspect_count": 1,
        "abnormal_count": 2,
        "mean_ndre": 0.3603,
        "mean_height_m": 4.79,
        "severity_score": 3.697,
        "priority": "Low",
        "zone": "Kuning"
      }
    },
    {
      "type": "Feature",
      "geometry": {
        "type": "Point",
        "coordinates": [
          109.23497379,
          -0.42671823
        ]
      },
      "properties": {
        "ring_id": "RING-024",
        "radius_m": 5.0,
        "member_count": 3,
        "suspect_count": 1,
        "abnormal_count": 2,
        "mean_ndre": 0.3753,
        "mean_height_m": 5.23,
        "severity_score": 3.547,
        "priority": "Low",
        "zone": "Kuning"
      }
    },
    {
      "type": "Feature",
      "geometry": {
        "type": "Point",
        "coordinates": [
          109.2357458,
          -0.42757523
        ]
      },
      "properties": {
        "ring_id": "RING-080",
        "radius_m": 5.0,
        "member_count": 3,
        "suspect_count": 1,
        "abnormal_count": 2,
        "mean_ndre": 0.3767,
        "mean_height_m": 4.25,
        "severity_score": 3.533,
        "priority": "Low",
        "zone": "Kuning"
      }
    },
    {
      "type": "Feature",
      "geometry": {
        "type": "Point",
        "coordinates": [
          109.23488775,
          -0.42584058
        ]
      },
      "properties": {
        "ring_id": "RING-041",
        "radius_m": 5.0,
        "member_count": 3,
        "suspect_count": 1,
        "abnormal_count": 2,
        "mean_ndre": 0.382,
        "mean_height_m": 4.85,
        "severity_score": 3.48,
        "priority": "Low",
        "zone": "Kuning"
      }
    }
  ],
  "metadata": {
    "source": "E:\\ARENA_PILOT\\CINCIN_API\\D002A\\D002A_relative_cincin_api.csv",
    "total_rings": 94,
    "generated_by": "cincin_api.export_cincin_api_geojson"
  }
}